{"type": "FeatureCollection", "features": [{"type": "Feature", "properties": {"name": "OSRM foot Restu pavilion -> DTSP", "distance_m": 2370.9, "duration_min": 31.68, "min_dist_to_jejantas_m": 131.6}, "geometry": {"type": "LineString", "coordinates": [[100.288388, 5.356504], [100.288463, 5.356308], [100.288494, 5.356179], [100.288544, 5.355991], [100.288571, 5.355811], [100.288585, 5.355662], [100.288602, 5.355419], [100.288592, 5.355332], [100.288905, 5.354819], [100.289015, 5.354431], [100.288954, 5.354278], [100.288918, 5.35408], [100.288985, 5.353925], [100.289101, 5.353767], [100.289175, 5.353576], [100.28937, 5.353361], [100.289745, 5.353254], [100.290086, 5.352923], [100.290287, 5.352683], [100.290504, 5.352667], [100.290648, 5.352742], [100.290786, 5.352719], [100.291204, 5.35254], [100.291827, 5.352229], [100.291862, 5.352338], [100.291899, 5.35245], [100.292, 5.352728], [100.292029, 5.352808], [100.292253, 5.353394], [100.292086, 5.353424], [100.292342, 5.354289], [100.292389, 5.354496], [100.29249, 5.354875], [100.292604, 5.355242], [100.292672, 5.355212], [100.292724, 5.35521], [100.292749, 5.355214], [100.292804, 5.355226], [100.292923, 5.355262], [100.292979, 5.355273], [100.293043, 5.355278], [100.293121, 5.35527], [100.293188, 5.355248], [100.293179, 5.355193], [100.293245, 5.355191], [100.293303, 5.355186], [100.293723, 5.355166], [100.294202, 5.355138], [100.294532, 5.355118], [100.294713, 5.355106], [100.29656, 5.355007], [100.296563, 5.355056], [100.297204, 5.355009], [100.297659, 5.354975], [100.297825, 5.354977], [100.298081, 5.355003], [100.298241, 5.35502], [100.298448, 5.355043], [100.298689, 5.355076], [100.298983, 5.355113], [100.299065, 5.355124], [100.299301, 5.355156], [100.299538, 5.35519], [100.29975, 5.355222], [100.299848, 5.355274], [100.300003, 5.355325], [100.30005, 5.355341], [100.300138, 5.355383], [100.300203, 5.355511], [100.300368, 5.355838], [100.300746, 5.356585], [100.300866, 5.356563], [100.300915, 5.356551], [100.300966, 5.356548], [100.301011, 5.356557], [100.301052, 5.356581], [100.301079, 5.356612], [100.301105, 5.356651], [100.301148, 5.356713], [100.301163, 5.356739], [100.301179, 5.356773], [100.301273, 5.35677], [100.301293, 5.35677], [100.301332, 5.356769], [100.30158, 5.356765], [100.301834, 5.356761], [100.301864, 5.356762], [100.301963, 5.356816], [100.301973, 5.356821], [100.302011, 5.356868], [100.302359, 5.357159], [100.302471, 5.357025], [100.302619, 5.356847], [100.302647, 5.356872], [100.302695, 5.356914], [100.302708, 5.356924], [100.302745, 5.356953], [100.302768, 5.356962], [100.302811, 5.356968], [100.302852, 5.356975], [100.302891, 5.356992], [100.303004, 5.357059], [100.303036, 5.357078]]}}, {"type": "Feature", "properties": {"name": "OSRM driving Restu pavilion -> DTSP", "distance_m": 1976.8, "duration_min": 5.25, "min_dist_to_jejantas_m": 41.5}, "geometry": {"type": "LineString", "coordinates": [[100.289824, 5.357567], [100.290074, 5.357553], [100.290217, 5.357534], [100.290295, 5.357505], [100.290551, 5.357341], [100.290629, 5.357286], [100.290713, 5.357203], [100.290787, 5.357125], [100.290861, 5.357009], [100.290948, 5.356805], [100.29098, 5.356656], [100.291006, 5.356517], [100.29102, 5.356475], [100.291056, 5.356446], [100.291108, 5.35644], [100.291824, 5.356453], [100.291942, 5.356457], [100.292225, 5.356471], [100.292301, 5.356472], [100.292387, 5.356453], [100.29245, 5.356411], [100.292495, 5.356353], [100.29254, 5.356283], [100.292549, 5.356253], [100.29254, 5.355974], [100.29252, 5.355566], [100.292511, 5.355397], [100.292507, 5.355248], [100.292542, 5.355246], [100.292604, 5.355242], [100.292655, 5.355263], [100.292715, 5.355262], [100.292739, 5.355268], [100.292807, 5.355294], [100.292929, 5.355338], [100.293005, 5.355352], [100.293102, 5.355359], [100.293263, 5.355366], [100.293313, 5.355363], [100.293355, 5.355356], [100.29349, 5.355333], [100.293511, 5.355326], [100.293655, 5.355251], [100.294204, 5.355199], [100.294533, 5.355169], [100.295036, 5.355139], [100.295615, 5.355107], [100.296563, 5.355056], [100.297204, 5.355009], [100.297659, 5.354975], [100.297825, 5.354977], [100.298081, 5.355003], [100.298241, 5.35502], [100.298448, 5.355043], [100.298689, 5.355076], [100.298983, 5.355113], [100.299065, 5.355124], [100.299301, 5.355156], [100.299538, 5.35519], [100.29975, 5.355222], [100.299824, 5.355233], [100.299946, 5.355251], [100.300019, 5.35526], [100.300102, 5.355272], [100.300119, 5.355219], [100.300154, 5.355166], [100.300228, 5.355071], [100.300316, 5.354959], [100.30045, 5.35478], [100.300717, 5.354422], [100.3008, 5.354305], [100.30086, 5.35426], [100.300921, 5.35423], [100.300988, 5.354212], [100.301064, 5.3542], [100.301132, 5.354202], [100.301193, 5.354217], [100.30127, 5.354249], [100.301384, 5.35433], [100.301537, 5.354438], [100.301674, 5.354522], [100.301822, 5.354585], [100.301983, 5.354643], [100.302134, 5.354718], [100.302211, 5.354745], [100.302349, 5.354791], [100.30242, 5.354814], [100.302617, 5.354876], [100.302789, 5.354942], [100.30288, 5.354999], [100.302967, 5.355097], [100.303036, 5.355209], [100.303258, 5.355643], [100.303279, 5.355685], [100.303311, 5.355748], [100.303481, 5.356083], [100.303448, 5.356103], [100.303374, 5.356169], [100.303354, 5.356198], [100.303339, 5.356233], [100.303332, 5.356273], [100.303331, 5.356307], [100.303336, 5.356341], [100.303346, 5.35637], [100.303378, 5.356437], [100.303467, 5.356617], [100.303489, 5.356692], [100.303502, 5.356801], [100.303503, 5.35682], [100.303452, 5.356917], [100.303444, 5.356945], [100.30344, 5.356974]]}}, {"type": "Feature", "properties": {"name": "OSRM foot VIA jejantas", "distance_m": 3120.4, "duration_min": 41.59, "min_dist_to_jejantas_m": 0.0}, "geometry": {"type": "LineString", "coordinates": [[100.288388, 5.356504], [100.288463, 5.356308], [100.288494, 5.356179], [100.288544, 5.355991], [100.288571, 5.355811], [100.288585, 5.355662], [100.288602, 5.355419], [100.288592, 5.355332], [100.288905, 5.354819], [100.289015, 5.354431], [100.288954, 5.354278], [100.288918, 5.35408], [100.288985, 5.353925], [100.289101, 5.353767], [100.289175, 5.353576], [100.28937, 5.353361], [100.289745, 5.353254], [100.290086, 5.352923], [100.290287, 5.352683], [100.290504, 5.352667], [100.290648, 5.352742], [100.290786, 5.352719], [100.291204, 5.35254], [100.291827, 5.352229], [100.291862, 5.352338], [100.291899, 5.35245], [100.292, 5.352728], [100.292029, 5.352808], [100.292253, 5.353394], [100.292086, 5.353424], [100.292342, 5.354289], [100.292389, 5.354496], [100.29249, 5.354875], [100.292604, 5.355242], [100.292655, 5.355263], [100.29262, 5.355305], [100.292646, 5.355302], [100.292705, 5.355297], [100.292723, 5.355318], [100.292735, 5.355344], [100.292744, 5.355464], [100.292793, 5.355468], [100.292813, 5.355468], [100.292944, 5.355463], [100.292986, 5.355462], [100.293025, 5.355456], [100.293056, 5.35545], [100.293267, 5.355409], [100.294207, 5.355302], [100.29432, 5.355289], [100.294979, 5.355239], [100.295041, 5.355234], [100.29506, 5.35557], [100.295068, 5.3557], [100.295082, 5.355795], [100.294906, 5.355818], [100.294912, 5.355911], [100.294909, 5.355928], [100.294901, 5.355943], [100.294887, 5.355954], [100.29487, 5.355958], [100.293391, 5.356055], [100.293389, 5.35622], [100.293398, 5.356422], [100.293311, 5.356427], [100.293223, 5.356432], [100.293092, 5.35644], [100.292874, 5.356452], [100.293092, 5.35644], [100.293223, 5.356432], [100.293311, 5.356427], [100.293398, 5.356422], [100.293389, 5.35622], [100.293391, 5.356055], [100.29487, 5.355958], [100.294887, 5.355954], [100.294901, 5.355943], [100.294909, 5.355928], [100.294912, 5.355911], [100.294906, 5.355818], [100.295082, 5.355795], [100.295068, 5.3557], [100.29506, 5.35557], [100.295118, 5.355566], [100.295101, 5.35523], [100.296578, 5.35514], [100.296563, 5.355056], [100.297204, 5.355009], [100.297659, 5.354975], [100.297825, 5.354977], [100.298081, 5.355003], [100.298241, 5.35502], [100.298448, 5.355043], [100.298689, 5.355076], [100.298983, 5.355113], [100.299065, 5.355124], [100.299301, 5.355156], [100.299538, 5.35519], [100.29975, 5.355222], [100.299848, 5.355274], [100.300003, 5.355325], [100.30005, 5.355341], [100.300138, 5.355383], [100.300203, 5.355511], [100.300368, 5.355838], [100.300746, 5.356585], [100.300866, 5.356563], [100.300915, 5.356551], [100.300966, 5.356548], [100.301011, 5.356557], [100.301052, 5.356581], [100.301079, 5.356612], [100.301105, 5.356651], [100.301148, 5.356713], [100.301163, 5.356739], [100.301179, 5.356773], [100.301273, 5.35677], [100.301293, 5.35677], [100.301332, 5.356769], [100.30158, 5.356765], [100.301834, 5.356761], [100.301864, 5.356762], [100.301963, 5.356816], [100.301973, 5.356821], [100.302011, 5.356868], [100.302359, 5.357159], [100.302471, 5.357025], [100.302619, 5.356847], [100.302647, 5.356872], [100.302695, 5.356914], [100.302708, 5.356924], [100.302745, 5.356953], [100.302768, 5.356962], [100.302811, 5.356968], [100.302852, 5.356975], [100.302891, 5.356992], [100.303004, 5.357059], [100.303036, 5.357078]]}}, {"type": "Feature", "properties": {"name": "GPS bus stage 07:58:30-08:01:35", "length_m": 1078.1}, "geometry": {"type": "LineString", "coordinates": [[100.2936857, 5.3560136], [100.2936903, 5.3560137], [100.2936897, 5.3560138], [100.2937107, 5.3560152], [100.2937481, 5.356013], [100.2938372, 5.3560018], [100.2938933, 5.3559923], [100.2939427, 5.3559818], [100.2939878, 5.3559734], [100.2940397, 5.3559617], [100.2940946, 5.3559466], [100.2941582, 5.3559326], [100.2942275, 5.3559182], [100.2942993, 5.3559028], [100.2943666, 5.3558942], [100.2944326, 5.3558914], [100.2944954, 5.3558911], [100.2945563, 5.3558855], [100.2946133, 5.3558833], [100.2946658, 5.3558798], [100.2947139, 5.3558726], [100.2947546, 5.355868], [100.2947932, 5.3558637], [100.2948271, 5.3558598], [100.2948589, 5.355856], [100.2948858, 5.3558516], [100.2949084, 5.3558504], [100.2949297, 5.3558499], [100.2949506, 5.3558491], [100.2949581, 5.3558471], [100.2949679, 5.3558454], [100.2950082, 5.3558354], [100.2950305, 5.3558244], [100.2950498, 5.3558077], [100.2950642, 5.3557887], [100.2950728, 5.3557688], [100.2950789, 5.3557478], [100.2950833, 5.3557261], [100.2950771, 5.3556976], [100.2950724, 5.3556645], [100.2950685, 5.3556277], [100.295064, 5.3555868], [100.29506, 5.3555441], [100.2950579, 5.3555053], [100.2950555, 5.3554717], [100.2950514, 5.3554417], [100.2950497, 5.3554203], [100.2950486, 5.3554024], [100.2950478, 5.3553853], [100.2950462, 5.3553705], [100.2950439, 5.3553547], [100.2950417, 5.3553369], [100.2950401, 5.3553192], [100.2950391, 5.3552998], [100.2950392, 5.3552785], [100.2950405, 5.3552559], [100.295045, 5.3552313], [100.2950536, 5.3552059], [100.2950684, 5.3551837], [100.2950885, 5.3551668], [100.2951171, 5.3551513], [100.2951521, 5.3551381], [100.2951933, 5.355123], [100.2952665, 5.3551424], [100.2953306, 5.3551402], [100.2953981, 5.355138], [100.2954803, 5.355133], [100.2955597, 5.3551279], [100.295643, 5.3551251], [100.2957221, 5.3551221], [100.2958034, 5.3551209], [100.2958792, 5.3551168], [100.2959565, 5.3551111], [100.2960319, 5.3551083], [100.2961012, 5.3551041], [100.2961667, 5.3550972], [100.2962274, 5.355092], [100.2962769, 5.3550881], [100.2963169, 5.355086], [100.2963531, 5.3550889], [100.2963882, 5.3550863], [100.296424, 5.3550933], [100.2964575, 5.3550923], [100.2964935, 5.3550872], [100.2965355, 5.3550814], [100.2965857, 5.3550774], [100.2966381, 5.3550712], [100.2967069, 5.3550708], [100.2967776, 5.3550648], [100.2968534, 5.3550652], [100.296932, 5.3550593], [100.2970142, 5.3550521], [100.2970985, 5.3550479], [100.297179, 5.3550401], [100.2972637, 5.3550333], [100.2973479, 5.3550271], [100.2974309, 5.3550166], [100.2975161, 5.3550134], [100.2975983, 5.3550067], [100.2976943, 5.3550034], [100.2977692, 5.3550019], [100.2978378, 5.3550015], [100.2979186, 5.3550069], [100.2979939, 5.3550134], [100.2980607, 5.355042], [100.2981235, 5.3550444], [100.2981641, 5.3550472], [100.2981988, 5.3550478], [100.2982325, 5.355057], [100.2982549, 5.3550569], [100.2982862, 5.3550597], [100.2983212, 5.3550628], [100.2983556, 5.355065], [100.2983893, 5.3550678], [100.2984217, 5.3550705], [100.298453, 5.3550737], [100.298485, 5.3550776], [100.298518, 5.3550798], [100.2985564, 5.3550827], [100.2986085, 5.3550926], [100.2986676, 5.3551022], [100.2987351, 5.3551095], [100.2988089, 5.3551171], [100.2988885, 5.3551256], [100.2989703, 5.3551361], [100.2990522, 5.3551462], [100.2991328, 5.3551558], [100.2992079, 5.3551654], [100.2992745, 5.3551725], [100.2993371, 5.3551826], [100.2994041, 5.3551933], [100.2994758, 5.3551968], [100.2995532, 5.3552076], [100.2996297, 5.3552228], [100.2997045, 5.3552366], [100.2997682, 5.3552477], [100.2998273, 5.3552624], [100.2998734, 5.3552783], [100.2999094, 5.3552898], [100.2999444, 5.3553011], [100.2999806, 5.3553092], [100.3000208, 5.355322], [100.3000609, 5.3553386], [100.3001071, 5.3553634], [100.3001444, 5.3553878], [100.3001844, 5.3554166], [100.3002135, 5.3554737], [100.3002291, 5.3555502], [100.3002569, 5.3556123], [100.3002897, 5.355673], [100.3003168, 5.3557444], [100.3003442, 5.3558122], [100.300382, 5.355878], [100.3004203, 5.3559499], [100.3004559, 5.3560203], [100.3004918, 5.3560889], [100.3005259, 5.356162], [100.3005565, 5.356225], [100.3005921, 5.3562908], [100.3006278, 5.3563498], [100.3006657, 5.3564087], [100.3006903, 5.356464], [100.300716, 5.3565235], [100.3007389, 5.3565745], [100.3007751, 5.3566346], [100.3008133, 5.3566942], [100.3008444, 5.35676], [100.300874, 5.3568281], [100.3009074, 5.3568911], [100.3009359, 5.3569493], [100.3009602, 5.3570068], [100.3009844, 5.3570539], [100.3010035, 5.3571108], [100.3010295, 5.3571683], [100.3010513, 5.3572075], [100.3010771, 5.3572637], [100.3010933, 5.3573204], [100.3011314, 5.3573854], [100.3011586, 5.3574409], [100.3011864, 5.3574868], [100.3012047, 5.3575331], [100.3012245, 5.3575697], [100.3012365, 5.3575967], [100.3012489, 5.3576181], [100.3012634, 5.3576373], [100.3012763, 5.3576519]]}}, {"type": "Feature", "properties": {"name": "Jejantas Padang Kawad (report 01 pin)"}, "geometry": {"type": "Point", "coordinates": [100.2928739, 5.3564521]}}]}