{"type": "FeatureCollection", "features": [{"type": "Feature", "properties": {"name": "GPS full DUD to DTSP (simplified)", "n_raw": 5822, "length_m": 2162.4}, "geometry": {"type": "LineString", "coordinates": [[100.29224, 5.3585377], [100.2902321, 5.3573503], [100.2903074, 5.3573488], [100.2903783, 5.3573318], [100.2904433, 5.3572954], [100.2905078, 5.3572601], [100.2905627, 5.3572083], [100.2906247, 5.357168], [100.2906759, 5.3571157], [100.2907126, 5.3570522], [100.2907324, 5.356982], [100.2907346, 5.356909], [100.2907987, 5.3568741], [100.2908519, 5.3568201], [100.2908808, 5.3567527], [100.2909117, 5.3566876], [100.2909838, 5.3566967], [100.2910454, 5.3567345], [100.291064, 5.3566579], [100.2911108, 5.3565974], [100.291119, 5.3565173], [100.2911648, 5.3564612], [100.291237, 5.3564476], [100.2913096, 5.3564634], [100.2913816, 5.3564878], [100.2914573, 5.3564959], [100.2915295, 5.3565035], [100.2916066, 5.3565139], [100.2916824, 5.3565112], [100.2917433, 5.3564678], [100.2918103, 5.3564965], [100.2918839, 5.3564719], [100.2919596, 5.3564592], [100.2920346, 5.3564554], [100.292108, 5.3564732], [100.2921616, 5.3565232], [100.2922384, 5.3565185], [100.2923114, 5.3565206], [100.2923741, 5.3564829], [100.2924439, 5.3564485], [100.2925137, 5.3564241], [100.2925861, 5.356422], [100.2926606, 5.356421], [100.2927298, 5.3564435], [100.2928028, 5.3564418], [100.2928716, 5.3564189], [100.2929504, 5.3564336], [100.293026, 5.3564412], [100.2930991, 5.3564485], [100.2931714, 5.3564343], [100.2932475, 5.3564178], [100.293319, 5.356392], [100.2932462, 5.3563824], [100.2933459, 5.3563579], [100.2934187, 5.3563343], [100.2934514, 5.3562639], [100.2934742, 5.3561953], [100.2935148, 5.3561352], [100.2935453, 5.3560663], [100.2936071, 5.3560238], [100.2936195, 5.3560985], [100.2936791, 5.3561399], [100.2937516, 5.3561393], [100.2937965, 5.3560817], [100.2937577, 5.3560208], [100.2937503, 5.3559482], [100.2937662, 5.3560197], [100.2936954, 5.3560444], [100.2938372, 5.3560018], [100.2939427, 5.3559818], [100.2940397, 5.3559617], [100.2941582, 5.3559326], [100.2942993, 5.3559028], [100.2944326, 5.3558914], [100.2945563, 5.3558855], [100.2946658, 5.3558798], [100.2947546, 5.355868], [100.2948271, 5.3558598], [100.2949084, 5.3558504], [100.2950082, 5.3558354], [100.2950642, 5.3557887], [100.2950771, 5.3556976], [100.295064, 5.3555868], [100.2950579, 5.3555053], [100.2950497, 5.3554203], [100.2950417, 5.3553369], [100.2950405, 5.3552559], [100.2950684, 5.3551837], [100.2951521, 5.3551381], [100.2952665, 5.3551424], [100.2953981, 5.355138], [100.2954803, 5.355133], [100.2955597, 5.3551279], [100.295643, 5.3551251], [100.2957221, 5.3551221], [100.2958034, 5.3551209], [100.2958792, 5.3551168], [100.2959565, 5.3551111], [100.2960319, 5.3551083], [100.2961667, 5.3550972], [100.2962769, 5.3550881], [100.2963531, 5.3550889], [100.2964575, 5.3550923], [100.2965355, 5.3550814], [100.2966381, 5.3550712], [100.2967776, 5.3550648], [100.2968534, 5.3550652], [100.296932, 5.3550593], [100.2970142, 5.3550521], [100.2970985, 5.3550479], [100.297179, 5.3550401], [100.2972637, 5.3550333], [100.2973479, 5.3550271], [100.2974309, 5.3550166], [100.2975161, 5.3550134], [100.2975983, 5.3550067], [100.2976943, 5.3550034], [100.2977692, 5.3550019], [100.2979186, 5.3550069], [100.2979939, 5.3550134], [100.2980607, 5.355042], [100.2981641, 5.3550472], [100.2982549, 5.3550569], [100.2983556, 5.355065], [100.298453, 5.3550737], [100.2985564, 5.3550827], [100.2986676, 5.3551022], [100.2988089, 5.3551171], [100.2988885, 5.3551256], [100.2989703, 5.3551361], [100.2990522, 5.3551462], [100.2991328, 5.3551558], [100.2992079, 5.3551654], [100.2993371, 5.3551826], [100.2994758, 5.3551968], [100.2995532, 5.3552076], [100.2996297, 5.3552228], [100.2997045, 5.3552366], [100.2998273, 5.3552624], [100.2999094, 5.3552898], [100.2999806, 5.3553092], [100.3000609, 5.3553386], [100.3001444, 5.3553878], [100.3002135, 5.3554737], [100.3002291, 5.3555502], [100.3002897, 5.355673], [100.3003168, 5.3557444], [100.3003442, 5.3558122], [100.300382, 5.355878], [100.3004203, 5.3559499], [100.3004559, 5.3560203], [100.3004918, 5.3560889], [100.3005259, 5.356162], [100.3005921, 5.3562908], [100.3006657, 5.3564087], [100.300716, 5.3565235], [100.3007751, 5.3566346], [100.3008444, 5.35676], [100.300874, 5.3568281], [100.3009359, 5.3569493], [100.3009844, 5.3570539], [100.3010295, 5.3571683], [100.3010771, 5.3572637], [100.3011314, 5.3573854], [100.3011864, 5.3574868], [100.3012245, 5.3575697], [100.3012634, 5.3576373], [100.3013198, 5.3576857], [100.3013931, 5.3576659], [100.3014732, 5.3576103], [100.3015231, 5.3575138], [100.3015352, 5.3574364], [100.3015307, 5.357361], [100.3014936, 5.3572712], [100.3014267, 5.3572326], [100.3014771, 5.3571763], [100.3015488, 5.3572115], [100.3016211, 5.3571851], [100.3016973, 5.3571779], [100.3017709, 5.3571695], [100.3017738, 5.3570962], [100.3017673, 5.3571682], [100.3018413, 5.357178], [100.301906, 5.3572103], [100.3019771, 5.3572265], [100.3020365, 5.3572679], [100.3020959, 5.3573117], [100.3021568, 5.357354], [100.3022116, 5.3574098], [100.3022817, 5.3574291], [100.3023433, 5.357388], [100.3023865, 5.357327], [100.3024418, 5.35728], [100.3025113, 5.3573007], [100.3025821, 5.3573341], [100.3026557, 5.3573263], [100.3027065, 5.3572744], [100.3027268, 5.357201], [100.3027289, 5.3571277], [100.3027689, 5.3570674]]}}, {"type": "Feature", "properties": {"name": "GPS moving speed>=0.7"}, "geometry": {"type": "LineString", "coordinates": [[100.2903041, 5.3573509], [100.2903151, 5.3573506], [100.2903257, 5.35735], [100.2903325, 5.3573484], [100.2903367, 5.3573474], [100.2903957, 5.3573217], [100.2904068, 5.357316], [100.2904141, 5.3573124], [100.2904197, 5.3573089], [100.2904263, 5.3573062], [100.2904356, 5.3573009], [100.2904433, 5.3572954], [100.2904476, 5.3572921], [100.2904536, 5.3572876], [100.290461, 5.3572839], [100.2904722, 5.3572797], [100.290477, 5.3572777], [100.2904832, 5.3572741], [100.2904897, 5.3572691], [100.2904967, 5.3572636], [100.2905028, 5.3572611], [100.2905078, 5.3572601], [100.2905156, 5.3572584], [100.290524, 5.3572546], [100.2905318, 5.3572517], [100.2905314, 5.3572482], [100.2905406, 5.3572402], [100.2905445, 5.3572357], [100.2905526, 5.3572257], [100.2905584, 5.3572151], [100.2905627, 5.3572083], [100.290565, 5.3572015], [100.2905701, 5.3571905], [100.2905766, 5.3571807], [100.2905836, 5.3571748], [100.2905882, 5.3571708], [100.2905909, 5.3571679], [100.2905921, 5.3571637], [100.2906186, 5.3571738], [100.2906247, 5.357168], [100.2906334, 5.357161], [100.2906418, 5.3571533], [100.2906473, 5.3571488], [100.2906542, 5.3571431], [100.2906602, 5.3571381], [100.2906691, 5.3571294], [100.2906748, 5.3571185], [100.2906807, 5.3571076], [100.2906827, 5.3571], [100.2906848, 5.3570906], [100.2906898, 5.3570811], [100.2906918, 5.3570767], [100.2906981, 5.3570682], [100.2907043, 5.3570621], [100.2907112, 5.357054], [100.2907161, 5.3570487], [100.2907205, 5.3570409], [100.2907227, 5.3570359], [100.2907234, 5.3570313], [100.2907266, 5.3570239], [100.2907287, 5.3570162], [100.2907287, 5.357011], [100.2907291, 5.3570025], [100.2907302, 5.3569956], [100.2907314, 5.356987], [100.290718, 5.356953], [100.2907184, 5.3569471], [100.2907226, 5.356936], [100.2907243, 5.3569318], [100.2907266, 5.3569241], [100.2907299, 5.3569159], [100.2907346, 5.356909], [100.2907402, 5.356904], [100.2907437, 5.3569007], [100.2907504, 5.3568911], [100.2907519, 5.3568878], [100.2907785, 5.3569013], [100.2907824, 5.3568939], [100.2907875, 5.3568882], [100.2907902, 5.356884], [100.2907987, 5.3568741], [100.2908088, 5.3568629], [100.2908225, 5.3568574], [100.2908363, 5.3568517], [100.2908415, 5.3568457], [100.290842, 5.3568392], [100.2908478, 5.3568308], [100.2908519, 5.3568201], [100.2908535, 5.3568156], [100.2908589, 5.3568065], [100.2908578, 5.3568056], [100.2908659, 5.3568011], [100.2908694, 5.3567948], [100.2908713, 5.3567895], [100.2908735, 5.3567822], [100.2908757, 5.3567751], [100.2908777, 5.3567664], [100.2908784, 5.3567586], [100.2908808, 5.3567527], [100.2908801, 5.3567515], [100.2908829, 5.3567447], [100.2908842, 5.3567382], [100.2908856, 5.356733], [100.2908864, 5.3567257], [100.2908872, 5.3567212], [100.2908893, 5.3567121], [100.2908927, 5.3567035], [100.2908947, 5.3567], [100.2909019, 5.3566949], [100.2909065, 5.3566914], [100.2909338, 5.3566809], [100.2909391, 5.35668], [100.2909441, 5.3566788], [100.2909534, 5.3566784], [100.2909612, 5.3566802], [100.2909675, 5.3566827], [100.2909775, 5.3566945], [100.2909838, 5.3566967], [100.2910204, 5.3567192], [100.2910281, 5.3567225], [100.2910384, 5.3567304], [100.2910454, 5.3567345], [100.2910533, 5.3567342], [100.2910583, 5.3567297], [100.2910635, 5.3567281], [100.2910641, 5.3567232], [100.2910664, 5.3567166], [100.2910697, 5.3567092], [100.2910711, 5.3567023], [100.291073, 5.3566952], [100.2910629, 5.3566867], [100.2910597, 5.3566853], [100.2910573, 5.3566712], [100.291064, 5.3566579], [100.291071, 5.3566497], [100.2910771, 5.3566427], [100.291083, 5.3566357], [100.2910915, 5.356629], [100.2910962, 5.3566221], [100.2911006, 5.3566156], [100.2911047, 5.3566084], [100.2911073, 5.356602], [100.2911105, 5.3565964], [100.2911177, 5.3565859], [100.2911187, 5.3565838], [100.291121, 5.3565761], [100.2911235, 5.3565697], [100.2911416, 5.3564761], [100.2911446, 5.356475], [100.2911575, 5.3564666], [100.2911635, 5.3564624], [100.2911675, 5.3564588], [100.2911729, 5.3564551], [100.2911782, 5.3564532], [100.291186, 5.3564523], [100.2911951, 5.3564524], [100.2912009, 5.3564524], [100.2912122, 5.3564482], [100.2912181, 5.3564477], [100.2912249, 5.356448], [100.2912315, 5.3564481], [100.291237, 5.3564493], [100.2912483, 5.3564545], [100.2912548, 5.3564576], [100.2912634, 5.3564593], [100.2912723, 5.3564548], [100.2912772, 5.3564549], [100.2912853, 5.3564574], [100.2912928, 5.3564589], [100.2912982, 5.3564625], [100.2913043, 5.3564666], [100.2913107, 5.3564638], [100.2913191, 5.3564661], [100.2913276, 5.3564676], [100.2913344, 5.3564724], [100.2913649, 5.3564982], [100.2913688, 5.3564982], [100.2913764, 5.3564897], [100.2913842, 5.3564875], [100.2913928, 5.3564874], [100.2914042, 5.3564896], [100.2914192, 5.3564959], [100.291427, 5.3564989], [100.291436, 5.3564994], [100.2914807, 5.3564951], [100.291488, 5.3564976], [100.2914949, 5.3565009], [100.2915018, 5.3565035], [100.2915132, 5.3565039], [100.2915199, 5.3565045], [100.2915295, 5.3565035], [100.2915328, 5.3565058], [100.2915361, 5.3565096], [100.2915396, 5.3565111], [100.2915867, 5.35651], [100.2915966, 5.3565126], [100.2916066, 5.3565139], [100.2916136, 5.3565145], [100.2916218, 5.3565145], [100.291629, 5.3565139], [100.2916434, 5.3565126], [100.2916443, 5.3565122], [100.2916506, 5.3565129], [100.2916527, 5.3565127], [100.2916605, 5.3565114], [100.2916685, 5.3565111], [100.2916747, 5.3565118], [100.2916824, 5.3565112], [100.2917111, 5.3564909], [100.2917215, 5.3564819], [100.2917584, 5.3564917], [100.2917669, 5.3564955], [100.2918059, 5.3564965], [100.2918115, 5.3564965], [100.2918173, 5.3564972], [100.2918528, 5.3564856], [100.2918901, 5.3564712], [100.291929, 5.3564598], [100.2919398, 5.3564616], [100.2919431, 5.3564617], [100.2919485, 5.3564632], [100.2919596, 5.3564592], [100.2919672, 5.3564625], [100.2919714, 5.3564623], [100.2919776, 5.3564619], [100.2919868, 5.3564625], [100.2919957, 5.3564616], [100.2920019, 5.3564631], [100.2920091, 5.3564632], [100.292015, 5.3564624], [100.2920211, 5.3564605], [100.292059, 5.3564544], [100.2920683, 5.3564559], [100.2920778, 5.3564585], [100.2920856, 5.3564605], [100.2920905, 5.3564627], [100.2920988, 5.356466], [100.292108, 5.3564732], [100.2921141, 5.3564798], [100.2921198, 5.3564883], [100.2921234, 5.3564922], [100.2921296, 5.3564967], [100.2921356, 5.3565021], [100.2921415, 5.356505], [100.2921469, 5.3565066], [100.292147, 5.3565169], [100.292151, 5.3565211], [100.292155, 5.3565225], [100.2921616, 5.3565232], [100.2921665, 5.3565232], [100.2921744, 5.3565226], [100.2921952, 5.3564864], [100.2922073, 5.3564913], [100.2922093, 5.3565088], [100.2922155, 5.3565108], [100.2922243, 5.3565142], [100.2922322, 5.3565168], [100.2922384, 5.3565185], [100.2924171, 5.356463], [100.2924228, 5.3564566], [100.2924325, 5.3564534], [100.2924387, 5.3564507], [100.2924472, 5.3564476], [100.2924631, 5.3564427], [100.2924691, 5.3564415], [100.292535, 5.3564263], [100.2925484, 5.3564289], [100.2925592, 5.3564246], [100.2925658, 5.3564195], [100.2925753, 5.3564195], [100.2925879, 5.3564227], [100.2925995, 5.3564292], [100.2926082, 5.356435], [100.2926167, 5.3564391], [100.2926235, 5.3564415], [100.2926266, 5.3564156], [100.2926317, 5.3564118], [100.2926427, 5.3564157], [100.2926535, 5.3564187], [100.2926648, 5.356424], [100.2926763, 5.3564277], [100.2926873, 5.3564334], [100.2926896, 5.356436], [100.2927017, 5.3564417], [100.2927074, 5.3564419], [100.2927143, 5.3564427], [100.2927193, 5.3564438], [100.2927298, 5.3564435], [100.2927412, 5.3564427], [100.292748, 5.3564428], [100.2927567, 5.3564432], [100.2927586, 5.3564442], [100.2927639, 5.3564456], [100.2927713, 5.3564455], [100.2927756, 5.3564457], [100.2927845, 5.3564443], [100.2927955, 5.3564431], [100.2928028, 5.3564418], [100.2928105, 5.3564405], [100.2928117, 5.3564409], [100.2928211, 5.3564199], [100.2928329, 5.3564179], [100.2928371, 5.3564177], [100.2928462, 5.3564165], [100.2928541, 5.3564153], [100.2928658, 5.3564183], [100.2928741, 5.3564201], [100.2928854, 5.3564214], [100.2928932, 5.3564229], [100.293008, 5.3564413], [100.2930159, 5.3564419], [100.2930581, 5.3564417], [100.2930886, 5.3564473], [100.2931278, 5.3564422], [100.293132, 5.3564407], [100.2931409, 5.3564392], [100.2931497, 5.3564369], [100.2931553, 5.3564356], [100.2931582, 5.356435], [100.2931657, 5.3564323], [100.2932296, 5.3564231], [100.2932386, 5.3564201], [100.293249, 5.3564175], [100.2932604, 5.356415], [100.2932697, 5.3564132], [100.2932743, 5.3564125], [100.2932746, 5.3564039], [100.293276, 5.3563984], [100.2932784, 5.3563962], [100.293281, 5.3563929], [100.2932834, 5.35639], [100.2932868, 5.3563883], [100.2932925, 5.356387], [100.293294, 5.3563877], [100.2933151, 5.3563924], [100.2933205, 5.3563919], [100.2933283, 5.3563908], [100.2933376, 5.3563905], [100.2933434, 5.3563905], [100.2932543, 5.3563864], [100.2932505, 5.3563845], [100.2932462, 5.3563824], [100.2932389, 5.3563797], [100.2932326, 5.3563766], [100.293245, 5.3563658], [100.2933595, 5.3563564], [100.293378, 5.3563519], [100.2933903, 5.356349], [100.2934004, 5.3563446], [100.293409, 5.3563413], [100.2934202, 5.3563329], [100.2934254, 5.3563218], [100.2934262, 5.3563166], [100.2934279, 5.3563087], [100.2934451, 5.3563161], [100.2934502, 5.3563142], [100.2934502, 5.3563079], [100.293452, 5.356297], [100.2934503, 5.3562879], [100.2934476, 5.3562832], [100.2934496, 5.356274], [100.2934514, 5.3562639], [100.2934543, 5.3562581], [100.2934539, 5.3562534], [100.2934599, 5.3562448], [100.2934619, 5.3562375], [100.2934627, 5.3562335], [100.2934657, 5.356224], [100.293468, 5.3562144], [100.2934702, 5.3562102], [100.2934724, 5.3562029], [100.2934742, 5.3561953], [100.2934773, 5.3561847], [100.2934723, 5.3561825], [100.2934733, 5.3561809], [100.2934782, 5.3561674], [100.2934746, 5.3561619], [100.2934963, 5.3561925], [100.2935015, 5.3561867], [100.293507, 5.3561799], [100.2935096, 5.3561759], [100.2935116, 5.3561674], [100.293511, 5.3561591], [100.293512, 5.3561457], [100.2935148, 5.3561352], [100.2935178, 5.3561246], [100.2935209, 5.356118], [100.2935255, 5.356105], [100.2935275, 5.3560992], [100.2935308, 5.35609], [100.2935415, 5.3560732], [100.2935453, 5.3560663], [100.2935483, 5.3560626], [100.2935526, 5.3560562], [100.2935609, 5.3560415], [100.2935594, 5.3560478], [100.2935632, 5.3560463], [100.2935685, 5.3560423], [100.293571, 5.3560398], [100.2935773, 5.3560355], [100.293583, 5.3560327], [100.2935934, 5.3560285], [100.2935957, 5.3560277], [100.2935997, 5.3560256], [100.2936022, 5.3560259], [100.2936352, 5.3560653], [100.2936296, 5.3560755], [100.2936238, 5.3560866], [100.2936195, 5.3560985], [100.2936164, 5.3561059], [100.2936159, 5.3561133], [100.2936172, 5.3561213], [100.2936191, 5.3561292], [100.2936755, 5.3561391], [100.2936847, 5.3561411], [100.2936934, 5.3561423], [100.2937055, 5.3561426], [100.2937168, 5.3561418], [100.2937241, 5.3561391], [100.2937299, 5.3561364], [100.2937359, 5.3561334], [100.2937458, 5.3561439], [100.2937516, 5.3561393], [100.2937617, 5.3561348], [100.2937671, 5.35613], [100.2937706, 5.3561249], [100.2937758, 5.356119], [100.2937824, 5.3561145], [100.2937858, 5.3561103], [100.29379, 5.3561045], [100.2937923, 5.356099], [100.2937955, 5.3560923], [100.2937524, 5.3560033], [100.2937571, 5.356007], [100.2937637, 5.3560078], [100.2937655, 5.3560159], [100.2936637, 5.3560331], [100.2936595, 5.3560303], [100.2936537, 5.3560233], [100.2936563, 5.3560176], [100.2936903, 5.3560137], [100.2937107, 5.3560152], [100.2938372, 5.3560018], [100.2939427, 5.3559818], [100.2940397, 5.3559617], [100.2941582, 5.3559326], [100.2942993, 5.3559028], [100.2944326, 5.3558914], [100.2945563, 5.3558855], [100.2946658, 5.3558798], [100.2947546, 5.355868], [100.2948271, 5.3558598], [100.2948858, 5.3558516], [100.2949297, 5.3558499], [100.2949581, 5.3558471], [100.2950082, 5.3558354], [100.2950498, 5.3558077], [100.2950728, 5.3557688], [100.2950833, 5.3557261], [100.2950724, 5.3556645], [100.295064, 5.3555868], [100.2950579, 5.3555053], [100.2950514, 5.3554417], [100.2950486, 5.3554024], [100.2950462, 5.3553705], [100.2950417, 5.3553369], [100.2950391, 5.3552998], [100.2950405, 5.3552559], [100.2950536, 5.3552059], [100.2950885, 5.3551668], [100.2951521, 5.3551381], [100.2952665, 5.3551424], [100.2953981, 5.355138], [100.2955597, 5.3551279], [100.2957221, 5.3551221], [100.2958792, 5.3551168], [100.2960319, 5.3551083], [100.2961667, 5.3550972], [100.2962769, 5.3550881], [100.2963531, 5.3550889], [100.296424, 5.3550933], [100.2964935, 5.3550872], [100.2965857, 5.3550774], [100.2967069, 5.3550708], [100.2968534, 5.3550652], [100.2970142, 5.3550521], [100.297179, 5.3550401], [100.2973479, 5.3550271], [100.2975161, 5.3550134], [100.2976943, 5.3550034], [100.2978378, 5.3550015], [100.2979939, 5.3550134], [100.2981235, 5.3550444], [100.2981988, 5.3550478], [100.2982549, 5.3550569], [100.2983212, 5.3550628], [100.2983893, 5.3550678], [100.298453, 5.3550737], [100.298518, 5.3550798], [100.2986085, 5.3550926], [100.2987351, 5.3551095], [100.2988885, 5.3551256], [100.2990522, 5.3551462], [100.2992079, 5.3551654], [100.2993371, 5.3551826], [100.2994758, 5.3551968], [100.2996297, 5.3552228], [100.2997682, 5.3552477], [100.2998734, 5.3552783], [100.2999444, 5.3553011], [100.3000208, 5.355322], [100.3001071, 5.3553634], [100.3001844, 5.3554166], [100.3002291, 5.3555502], [100.3002897, 5.355673], [100.3003442, 5.3558122], [100.3004203, 5.3559499], [100.3004918, 5.3560889], [100.3005565, 5.356225], [100.3006278, 5.3563498], [100.3006903, 5.356464], [100.3007389, 5.3565745], [100.3008133, 5.3566942], [100.300874, 5.3568281], [100.3009359, 5.3569493], [100.3009844, 5.3570539], [100.3010295, 5.3571683], [100.3010771, 5.3572637], [100.3011314, 5.3573854], [100.3011864, 5.3574868], [100.3012245, 5.3575697], [100.3012489, 5.3576181], [100.3012763, 5.3576519], [100.3013034, 5.3576802], [100.3013408, 5.3576849], [100.3013931, 5.3576659], [100.3014496, 5.357632], [100.3014936, 5.357584], [100.3015231, 5.3575138], [100.3015352, 5.3574364], [100.3015307, 5.357361], [100.3015063, 5.3572981], [100.3014809, 5.357251], [100.3014544, 5.357186], [100.3014645, 5.3571821], [100.3014697, 5.357179], [100.301478, 5.3571754], [100.3014894, 5.3571704], [100.3014996, 5.3571672], [100.3015078, 5.3571682], [100.3015121, 5.3571733], [100.3015163, 5.3571816], [100.3015227, 5.3571845], [100.3015245, 5.3571843], [100.3015277, 5.3571842], [100.3015301, 5.3571836], [100.3015488, 5.3572115], [100.3015511, 5.3572225], [100.3015538, 5.3572257], [100.3015605, 5.3572206], [100.301566, 5.3572163], [100.3015708, 5.3572101], [100.3015802, 5.3572067], [100.3015975, 5.357201], [100.3016065, 5.3571971], [100.3016211, 5.3571851], [100.3016311, 5.3571783], [100.3016447, 5.3571761], [100.3016586, 5.3571758], [100.3016695, 5.3571755], [100.3016754, 5.3571758], [100.3016847, 5.3571761], [100.3016906, 5.3571769], [100.3017005, 5.357179], [100.3017033, 5.3571792], [100.3017138, 5.3571666], [100.3017219, 5.3571662], [100.3017284, 5.3571661], [100.3017405, 5.3571686], [100.301748, 5.3571696], [100.3017514, 5.3571704], [100.3017595, 5.3571728], [100.3017641, 5.3571744], [100.3017712, 5.3571683], [100.3017759, 5.3571692], [100.3017569, 5.3571393], [100.3017693, 5.3571651], [100.3017925, 5.3571483], [100.301797, 5.3571497], [100.3018028, 5.3571543], [100.3018133, 5.357152], [100.3018169, 5.3571558], [100.3018216, 5.3571615], [100.3018313, 5.3571705], [100.3018385, 5.3571764], [100.3018458, 5.35718], [100.3018491, 5.3571827], [100.3018561, 5.3571864], [100.3018663, 5.3571919], [100.3018731, 5.3571953], [100.3018799, 5.3571986], [100.3018881, 5.3572028], [100.3018974, 5.357207], [100.301906, 5.3572103], [100.3019128, 5.3572127], [100.3019247, 5.3572117], [100.30193, 5.3572123], [100.301936, 5.3572137], [100.3019428, 5.3572154], [100.3019536, 5.3572183], [100.3019612, 5.3572203], [100.3019666, 5.3572217], [100.3019724, 5.3572237], [100.3019802, 5.3572282], [100.3019817, 5.357229], [100.3019921, 5.3572295], [100.3019986, 5.3572326], [100.302005, 5.3572367], [100.3020113, 5.3572405], [100.3020145, 5.3572427], [100.30202, 5.3572472], [100.302025, 5.3572527], [100.3020292, 5.3572585], [100.3020325, 5.3572632], [100.3020365, 5.3572679], [100.3020411, 5.3572725], [100.3020453, 5.3572772], [100.3020502, 5.3572819], [100.3020571, 5.3572872], [100.3020644, 5.3572923], [100.3020701, 5.3572958], [100.3020745, 5.3572989], [100.3020855, 5.3573009], [100.302089, 5.3573038], [100.3020914, 5.3573072], [100.3020979, 5.3573136], [100.3021039, 5.3573194], [100.3021103, 5.3573263], [100.3021165, 5.3573312], [100.3021212, 5.3573348], [100.3021243, 5.3573367], [100.3021298, 5.3573398], [100.3021388, 5.3573452], [100.3021491, 5.3573505], [100.3021533, 5.3573527], [100.3021581, 5.3573546], [100.3021635, 5.3573568], [100.3021702, 5.3573688], [100.3021804, 5.3573763], [100.3021854, 5.3573784], [100.3021908, 5.35738], [100.3021981, 5.3573822], [100.3022062, 5.3573841], [100.3022081, 5.3573844], [100.3022111, 5.3574145], [100.3022168, 5.35742], [100.3022224, 5.3574231], [100.3022279, 5.3574244], [100.3022357, 5.3574251], [100.3022409, 5.3574252], [100.302249, 5.3574253], [100.3022526, 5.3574252], [100.3022583, 5.3574289], [100.3022644, 5.3574292], [100.3022733, 5.3574287], [100.3022817, 5.3574291], [100.3022877, 5.3574271], [100.3022945, 5.3574233], [100.3023005, 5.3574193], [100.3023088, 5.357413], [100.3023107, 5.3574108], [100.3023317, 5.3573983], [100.302339, 5.3573924], [100.302347, 5.3573829], [100.3023523, 5.3573768], [100.3023564, 5.3573704], [100.3023628, 5.3573642], [100.30237, 5.3573539], [100.3023759, 5.3573458], [100.3023813, 5.3573382], [100.3023841, 5.357332], [100.3023867, 5.3573259], [100.3023919, 5.3573168], [100.302396, 5.3573091], [100.3023978, 5.3573017], [100.3024007, 5.3572935], [100.3024038, 5.3572823], [100.3024035, 5.3572798], [100.3024236, 5.3572842], [100.3024306, 5.3572824], [100.3024371, 5.3572806], [100.3024418, 5.35728], [100.3024446, 5.357281], [100.3024511, 5.357283], [100.3024588, 5.3572833], [100.3024625, 5.3572837], [100.3024711, 5.3572906], [100.3024774, 5.3572926], [100.3024856, 5.3572943], [100.3024898, 5.3572953], [100.3024945, 5.3572967], [100.3025031, 5.3572995], [100.3025103, 5.3573008], [100.3025152, 5.3573017], [100.302523, 5.3573099], [100.3025269, 5.3573136], [100.3025315, 5.3573157], [100.3025362, 5.3573173], [100.3025429, 5.3573195], [100.3025515, 5.3573218], [100.3025595, 5.3573261], [100.3025643, 5.3573292], [100.302569, 5.3573314], [100.3025821, 5.3573341], [100.3025859, 5.3573339], [100.3025901, 5.3573349], [100.3025986, 5.3573372], [100.3026076, 5.3573369], [100.3026165, 5.3573346], [100.3026214, 5.3573316], [100.3026327, 5.3573277], [100.3026367, 5.3573243], [100.302642, 5.3573237], [100.3026515, 5.3573263], [100.3026573, 5.3573262], [100.3026823, 5.3573152], [100.3026937, 5.3572981], [100.3027005, 5.3572912], [100.3027043, 5.3572836], [100.3027058, 5.357277], [100.3027069, 5.3572729], [100.3027093, 5.3572661], [100.302714, 5.3572572], [100.3027172, 5.3572509], [100.3027199, 5.3572299], [100.3027202, 5.3572222], [100.3027217, 5.3572151], [100.302723, 5.35721], [100.302727, 5.3572005], [100.3027323, 5.3571908], [100.3027337, 5.3571831], [100.302733, 5.3571766], [100.3027326, 5.3571671], [100.3027313, 5.3571544], [100.3027297, 5.3571465], [100.302729, 5.357138], [100.3027289, 5.3571277], [100.3027307, 5.3571185], [100.3027314, 5.357113], [100.3027342, 5.3570999], [100.3027339, 5.3570974], [100.3027328, 5.357096], [100.3027327, 5.3570937], [100.3027738, 5.3570615]]}}, {"type": "Feature", "properties": {"name": "GPS fast speed>=4 (likely vehicle)"}, "geometry": {"type": "LineString", "coordinates": [[100.2937481, 5.356013], [100.2938372, 5.3560018], [100.2938933, 5.3559923], [100.2939427, 5.3559818], [100.2939878, 5.3559734], [100.2940397, 5.3559617], [100.2940946, 5.3559466], [100.2941582, 5.3559326], [100.2942275, 5.3559182], [100.2942993, 5.3559028], [100.2943666, 5.3558942], [100.2944326, 5.3558914], [100.2944954, 5.3558911], [100.2945563, 5.3558855], [100.2946133, 5.3558833], [100.2946658, 5.3558798], [100.2947139, 5.3558726], [100.2947546, 5.355868], [100.2947932, 5.3558637], [100.2948271, 5.3558598], [100.295064, 5.3555868], [100.29506, 5.3555441], [100.2950579, 5.3555053], [100.2951933, 5.355123], [100.2952665, 5.3551424], [100.2953306, 5.3551402], [100.2953981, 5.355138], [100.2954803, 5.355133], [100.2955597, 5.3551279], [100.295643, 5.3551251], [100.2957221, 5.3551221], [100.2958034, 5.3551209], [100.2958792, 5.3551168], [100.2959565, 5.3551111], [100.2960319, 5.3551083], [100.2961012, 5.3551041], [100.2961667, 5.3550972], [100.2962274, 5.355092], [100.2962769, 5.3550881], [100.2963169, 5.355086], [100.2965355, 5.3550814], [100.2965857, 5.3550774], [100.2966381, 5.3550712], [100.2967069, 5.3550708], [100.2967776, 5.3550648], [100.2968534, 5.3550652], [100.296932, 5.3550593], [100.2970142, 5.3550521], [100.2970985, 5.3550479], [100.297179, 5.3550401], [100.2972637, 5.3550333], [100.2973479, 5.3550271], [100.2974309, 5.3550166], [100.2975161, 5.3550134], [100.2975983, 5.3550067], [100.2976943, 5.3550034], [100.2977692, 5.3550019], [100.2978378, 5.3550015], [100.2979186, 5.3550069], [100.2979939, 5.3550134], [100.2980607, 5.355042], [100.2981235, 5.3550444], [100.2981641, 5.3550472], [100.2985564, 5.3550827], [100.2986085, 5.3550926], [100.2986676, 5.3551022], [100.2987351, 5.3551095], [100.2988089, 5.3551171], [100.2988885, 5.3551256], [100.2989703, 5.3551361], [100.2990522, 5.3551462], [100.2991328, 5.3551558], [100.2992079, 5.3551654], [100.2992745, 5.3551725], [100.2993371, 5.3551826], [100.2994041, 5.3551933], [100.2994758, 5.3551968], [100.2995532, 5.3552076], [100.2996297, 5.3552228], [100.2997045, 5.3552366], [100.2997682, 5.3552477], [100.2998273, 5.3552624], [100.2998734, 5.3552783], [100.2999094, 5.3552898], [100.2999806, 5.3553092], [100.3000208, 5.355322], [100.3000609, 5.3553386], [100.3001071, 5.3553634], [100.3001444, 5.3553878], [100.3001844, 5.3554166], [100.3002135, 5.3554737], [100.3002291, 5.3555502], [100.3002569, 5.3556123], [100.3002897, 5.355673], [100.3003168, 5.3557444], [100.3003442, 5.3558122], [100.300382, 5.355878], [100.3004203, 5.3559499], [100.3004559, 5.3560203], [100.3004918, 5.3560889], [100.3005259, 5.356162], [100.3005565, 5.356225], [100.3005921, 5.3562908], [100.3006278, 5.3563498], [100.3006657, 5.3564087], [100.3006903, 5.356464], [100.300716, 5.3565235], [100.3007389, 5.3565745], [100.3007751, 5.3566346], [100.3008133, 5.3566942], [100.3008444, 5.35676], [100.300874, 5.3568281], [100.3009074, 5.3568911], [100.3009359, 5.3569493], [100.3009602, 5.3570068], [100.3009844, 5.3570539], [100.3010035, 5.3571108], [100.3010295, 5.3571683], [100.3010513, 5.3572075], [100.3010771, 5.3572637], [100.3010933, 5.3573204], [100.3011314, 5.3573854], [100.3011586, 5.3574409], [100.3011864, 5.3574868], [100.3012047, 5.3575331], [100.3012245, 5.3575697]]}}, {"type": "Feature", "properties": {"name": "closest GPS to jejantas", "min_m": 3.6, "t": 1789602364.7001836, "lat": 5.3564201, "lon": 100.2928741, "speed": 0.7574905157089233}, "geometry": {"type": "Point", "coordinates": [100.2928741, 5.3564201]}}, {"type": "Feature", "properties": {"name": "Jejantas pin"}, "geometry": {"type": "Point", "coordinates": [100.2928739, 5.3564521]}}, {"type": "Feature", "properties": {"name": "OSRM foot Restu pavilion -> DTSP", "distance_m": 2370.9, "duration_min": 31.68, "min_dist_to_jejantas_m": 131.6}, "geometry": {"type": "LineString", "coordinates": [[100.288388, 5.356504], [100.288463, 5.356308], [100.288494, 5.356179], [100.288544, 5.355991], [100.288571, 5.355811], [100.288585, 5.355662], [100.288602, 5.355419], [100.288592, 5.355332], [100.288905, 5.354819], [100.289015, 5.354431], [100.288954, 5.354278], [100.288918, 5.35408], [100.288985, 5.353925], [100.289101, 5.353767], [100.289175, 5.353576], [100.28937, 5.353361], [100.289745, 5.353254], [100.290086, 5.352923], [100.290287, 5.352683], [100.290504, 5.352667], [100.290648, 5.352742], [100.290786, 5.352719], [100.291204, 5.35254], [100.291827, 5.352229], [100.291862, 5.352338], [100.291899, 5.35245], [100.292, 5.352728], [100.292029, 5.352808], [100.292253, 5.353394], [100.292086, 5.353424], [100.292342, 5.354289], [100.292389, 5.354496], [100.29249, 5.354875], [100.292604, 5.355242], [100.292672, 5.355212], [100.292724, 5.35521], [100.292749, 5.355214], [100.292804, 5.355226], [100.292923, 5.355262], [100.292979, 5.355273], [100.293043, 5.355278], [100.293121, 5.35527], [100.293188, 5.355248], [100.293179, 5.355193], [100.293245, 5.355191], [100.293303, 5.355186], [100.293723, 5.355166], [100.294202, 5.355138], [100.294532, 5.355118], [100.294713, 5.355106], [100.29656, 5.355007], [100.296563, 5.355056], [100.297204, 5.355009], [100.297659, 5.354975], [100.297825, 5.354977], [100.298081, 5.355003], [100.298241, 5.35502], [100.298448, 5.355043], [100.298689, 5.355076], [100.298983, 5.355113], [100.299065, 5.355124], [100.299301, 5.355156], [100.299538, 5.35519], [100.29975, 5.355222], [100.299848, 5.355274], [100.300003, 5.355325], [100.30005, 5.355341], [100.300138, 5.355383], [100.300203, 5.355511], [100.300368, 5.355838], [100.300746, 5.356585], [100.300866, 5.356563], [100.300915, 5.356551], [100.300966, 5.356548], [100.301011, 5.356557], [100.301052, 5.356581], [100.301079, 5.356612], [100.301105, 5.356651], [100.301148, 5.356713], [100.301163, 5.356739], [100.301179, 5.356773], [100.301273, 5.35677], [100.301293, 5.35677], [100.301332, 5.356769], [100.30158, 5.356765], [100.301834, 5.356761], [100.301864, 5.356762], [100.301963, 5.356816], [100.301973, 5.356821], [100.302011, 5.356868], [100.302359, 5.357159], [100.302471, 5.357025], [100.302619, 5.356847], [100.302647, 5.356872], [100.302695, 5.356914], [100.302708, 5.356924], [100.302745, 5.356953], [100.302768, 5.356962], [100.302811, 5.356968], [100.302852, 5.356975], [100.302891, 5.356992], [100.303004, 5.357059], [100.303036, 5.357078]]}}, {"type": "Feature", "properties": {"name": "OSRM driving Restu pavilion -> DTSP", "distance_m": 1976.8, "duration_min": 5.25, "min_dist_to_jejantas_m": 41.5}, "geometry": {"type": "LineString", "coordinates": [[100.289824, 5.357567], [100.290074, 5.357553], [100.290217, 5.357534], [100.290295, 5.357505], [100.290551, 5.357341], [100.290629, 5.357286], [100.290713, 5.357203], [100.290787, 5.357125], [100.290861, 5.357009], [100.290948, 5.356805], [100.29098, 5.356656], [100.291006, 5.356517], [100.29102, 5.356475], [100.291056, 5.356446], [100.291108, 5.35644], [100.291824, 5.356453], [100.291942, 5.356457], [100.292225, 5.356471], [100.292301, 5.356472], [100.292387, 5.356453], [100.29245, 5.356411], [100.292495, 5.356353], [100.29254, 5.356283], [100.292549, 5.356253], [100.29254, 5.355974], [100.29252, 5.355566], [100.292511, 5.355397], [100.292507, 5.355248], [100.292542, 5.355246], [100.292604, 5.355242], [100.292655, 5.355263], [100.292715, 5.355262], [100.292739, 5.355268], [100.292807, 5.355294], [100.292929, 5.355338], [100.293005, 5.355352], [100.293102, 5.355359], [100.293263, 5.355366], [100.293313, 5.355363], [100.293355, 5.355356], [100.29349, 5.355333], [100.293511, 5.355326], [100.293655, 5.355251], [100.294204, 5.355199], [100.294533, 5.355169], [100.295036, 5.355139], [100.295615, 5.355107], [100.296563, 5.355056], [100.297204, 5.355009], [100.297659, 5.354975], [100.297825, 5.354977], [100.298081, 5.355003], [100.298241, 5.35502], [100.298448, 5.355043], [100.298689, 5.355076], [100.298983, 5.355113], [100.299065, 5.355124], [100.299301, 5.355156], [100.299538, 5.35519], [100.29975, 5.355222], [100.299824, 5.355233], [100.299946, 5.355251], [100.300019, 5.35526], [100.300102, 5.355272], [100.300119, 5.355219], [100.300154, 5.355166], [100.300228, 5.355071], [100.300316, 5.354959], [100.30045, 5.35478], [100.300717, 5.354422], [100.3008, 5.354305], [100.30086, 5.35426], [100.300921, 5.35423], [100.300988, 5.354212], [100.301064, 5.3542], [100.301132, 5.354202], [100.301193, 5.354217], [100.30127, 5.354249], [100.301384, 5.35433], [100.301537, 5.354438], [100.301674, 5.354522], [100.301822, 5.354585], [100.301983, 5.354643], [100.302134, 5.354718], [100.302211, 5.354745], [100.302349, 5.354791], [100.30242, 5.354814], [100.302617, 5.354876], [100.302789, 5.354942], [100.30288, 5.354999], [100.302967, 5.355097], [100.303036, 5.355209], [100.303258, 5.355643], [100.303279, 5.355685], [100.303311, 5.355748], [100.303481, 5.356083], [100.303448, 5.356103], [100.303374, 5.356169], [100.303354, 5.356198], [100.303339, 5.356233], [100.303332, 5.356273], [100.303331, 5.356307], [100.303336, 5.356341], [100.303346, 5.35637], [100.303378, 5.356437], [100.303467, 5.356617], [100.303489, 5.356692], [100.303502, 5.356801], [100.303503, 5.35682], [100.303452, 5.356917], [100.303444, 5.356945], [100.30344, 5.356974]]}}, {"type": "Feature", "properties": {"name": "OSRM foot VIA jejantas", "distance_m": 3120.4, "duration_min": 41.59, "min_dist_to_jejantas_m": 0.0}, "geometry": {"type": "LineString", "coordinates": [[100.288388, 5.356504], [100.288463, 5.356308], [100.288494, 5.356179], [100.288544, 5.355991], [100.288571, 5.355811], [100.288585, 5.355662], [100.288602, 5.355419], [100.288592, 5.355332], [100.288905, 5.354819], [100.289015, 5.354431], [100.288954, 5.354278], [100.288918, 5.35408], [100.288985, 5.353925], [100.289101, 5.353767], [100.289175, 5.353576], [100.28937, 5.353361], [100.289745, 5.353254], [100.290086, 5.352923], [100.290287, 5.352683], [100.290504, 5.352667], [100.290648, 5.352742], [100.290786, 5.352719], [100.291204, 5.35254], [100.291827, 5.352229], [100.291862, 5.352338], [100.291899, 5.35245], [100.292, 5.352728], [100.292029, 5.352808], [100.292253, 5.353394], [100.292086, 5.353424], [100.292342, 5.354289], [100.292389, 5.354496], [100.29249, 5.354875], [100.292604, 5.355242], [100.292655, 5.355263], [100.29262, 5.355305], [100.292646, 5.355302], [100.292705, 5.355297], [100.292723, 5.355318], [100.292735, 5.355344], [100.292744, 5.355464], [100.292793, 5.355468], [100.292813, 5.355468], [100.292944, 5.355463], [100.292986, 5.355462], [100.293025, 5.355456], [100.293056, 5.35545], [100.293267, 5.355409], [100.294207, 5.355302], [100.29432, 5.355289], [100.294979, 5.355239], [100.295041, 5.355234], [100.29506, 5.35557], [100.295068, 5.3557], [100.295082, 5.355795], [100.294906, 5.355818], [100.294912, 5.355911], [100.294909, 5.355928], [100.294901, 5.355943], [100.294887, 5.355954], [100.29487, 5.355958], [100.293391, 5.356055], [100.293389, 5.35622], [100.293398, 5.356422], [100.293311, 5.356427], [100.293223, 5.356432], [100.293092, 5.35644], [100.292874, 5.356452], [100.293092, 5.35644], [100.293223, 5.356432], [100.293311, 5.356427], [100.293398, 5.356422], [100.293389, 5.35622], [100.293391, 5.356055], [100.29487, 5.355958], [100.294887, 5.355954], [100.294901, 5.355943], [100.294909, 5.355928], [100.294912, 5.355911], [100.294906, 5.355818], [100.295082, 5.355795], [100.295068, 5.3557], [100.29506, 5.35557], [100.295118, 5.355566], [100.295101, 5.35523], [100.296578, 5.35514], [100.296563, 5.355056], [100.297204, 5.355009], [100.297659, 5.354975], [100.297825, 5.354977], [100.298081, 5.355003], [100.298241, 5.35502], [100.298448, 5.355043], [100.298689, 5.355076], [100.298983, 5.355113], [100.299065, 5.355124], [100.299301, 5.355156], [100.299538, 5.35519], [100.29975, 5.355222], [100.299848, 5.355274], [100.300003, 5.355325], [100.30005, 5.355341], [100.300138, 5.355383], [100.300203, 5.355511], [100.300368, 5.355838], [100.300746, 5.356585], [100.300866, 5.356563], [100.300915, 5.356551], [100.300966, 5.356548], [100.301011, 5.356557], [100.301052, 5.356581], [100.301079, 5.356612], [100.301105, 5.356651], [100.301148, 5.356713], [100.301163, 5.356739], [100.301179, 5.356773], [100.301273, 5.35677], [100.301293, 5.35677], [100.301332, 5.356769], [100.30158, 5.356765], [100.301834, 5.356761], [100.301864, 5.356762], [100.301963, 5.356816], [100.301973, 5.356821], [100.302011, 5.356868], [100.302359, 5.357159], [100.302471, 5.357025], [100.302619, 5.356847], [100.302647, 5.356872], [100.302695, 5.356914], [100.302708, 5.356924], [100.302745, 5.356953], [100.302768, 5.356962], [100.302811, 5.356968], [100.302852, 5.356975], [100.302891, 5.356992], [100.303004, 5.357059], [100.303036, 5.357078]]}}, {"type": "Feature", "properties": {"name": "GPS bus stage 07:58:30-08:01:35", "length_m": 1078.1}, "geometry": {"type": "LineString", "coordinates": [[100.2936857, 5.3560136], [100.2936903, 5.3560137], [100.2936897, 5.3560138], [100.2937107, 5.3560152], [100.2937481, 5.356013], [100.2938372, 5.3560018], [100.2938933, 5.3559923], [100.2939427, 5.3559818], [100.2939878, 5.3559734], [100.2940397, 5.3559617], [100.2940946, 5.3559466], [100.2941582, 5.3559326], [100.2942275, 5.3559182], [100.2942993, 5.3559028], [100.2943666, 5.3558942], [100.2944326, 5.3558914], [100.2944954, 5.3558911], [100.2945563, 5.3558855], [100.2946133, 5.3558833], [100.2946658, 5.3558798], [100.2947139, 5.3558726], [100.2947546, 5.355868], [100.2947932, 5.3558637], [100.2948271, 5.3558598], [100.2948589, 5.355856], [100.2948858, 5.3558516], [100.2949084, 5.3558504], [100.2949297, 5.3558499], [100.2949506, 5.3558491], [100.2949581, 5.3558471], [100.2949679, 5.3558454], [100.2950082, 5.3558354], [100.2950305, 5.3558244], [100.2950498, 5.3558077], [100.2950642, 5.3557887], [100.2950728, 5.3557688], [100.2950789, 5.3557478], [100.2950833, 5.3557261], [100.2950771, 5.3556976], [100.2950724, 5.3556645], [100.2950685, 5.3556277], [100.295064, 5.3555868], [100.29506, 5.3555441], [100.2950579, 5.3555053], [100.2950555, 5.3554717], [100.2950514, 5.3554417], [100.2950497, 5.3554203], [100.2950486, 5.3554024], [100.2950478, 5.3553853], [100.2950462, 5.3553705], [100.2950439, 5.3553547], [100.2950417, 5.3553369], [100.2950401, 5.3553192], [100.2950391, 5.3552998], [100.2950392, 5.3552785], [100.2950405, 5.3552559], [100.295045, 5.3552313], [100.2950536, 5.3552059], [100.2950684, 5.3551837], [100.2950885, 5.3551668], [100.2951171, 5.3551513], [100.2951521, 5.3551381], [100.2951933, 5.355123], [100.2952665, 5.3551424], [100.2953306, 5.3551402], [100.2953981, 5.355138], [100.2954803, 5.355133], [100.2955597, 5.3551279], [100.295643, 5.3551251], [100.2957221, 5.3551221], [100.2958034, 5.3551209], [100.2958792, 5.3551168], [100.2959565, 5.3551111], [100.2960319, 5.3551083], [100.2961012, 5.3551041], [100.2961667, 5.3550972], [100.2962274, 5.355092], [100.2962769, 5.3550881], [100.2963169, 5.355086], [100.2963531, 5.3550889], [100.2963882, 5.3550863], [100.296424, 5.3550933], [100.2964575, 5.3550923], [100.2964935, 5.3550872], [100.2965355, 5.3550814], [100.2965857, 5.3550774], [100.2966381, 5.3550712], [100.2967069, 5.3550708], [100.2967776, 5.3550648], [100.2968534, 5.3550652], [100.296932, 5.3550593], [100.2970142, 5.3550521], [100.2970985, 5.3550479], [100.297179, 5.3550401], [100.2972637, 5.3550333], [100.2973479, 5.3550271], [100.2974309, 5.3550166], [100.2975161, 5.3550134], [100.2975983, 5.3550067], [100.2976943, 5.3550034], [100.2977692, 5.3550019], [100.2978378, 5.3550015], [100.2979186, 5.3550069], [100.2979939, 5.3550134], [100.2980607, 5.355042], [100.2981235, 5.3550444], [100.2981641, 5.3550472], [100.2981988, 5.3550478], [100.2982325, 5.355057], [100.2982549, 5.3550569], [100.2982862, 5.3550597], [100.2983212, 5.3550628], [100.2983556, 5.355065], [100.2983893, 5.3550678], [100.2984217, 5.3550705], [100.298453, 5.3550737], [100.298485, 5.3550776], [100.298518, 5.3550798], [100.2985564, 5.3550827], [100.2986085, 5.3550926], [100.2986676, 5.3551022], [100.2987351, 5.3551095], [100.2988089, 5.3551171], [100.2988885, 5.3551256], [100.2989703, 5.3551361], [100.2990522, 5.3551462], [100.2991328, 5.3551558], [100.2992079, 5.3551654], [100.2992745, 5.3551725], [100.2993371, 5.3551826], [100.2994041, 5.3551933], [100.2994758, 5.3551968], [100.2995532, 5.3552076], [100.2996297, 5.3552228], [100.2997045, 5.3552366], [100.2997682, 5.3552477], [100.2998273, 5.3552624], [100.2998734, 5.3552783], [100.2999094, 5.3552898], [100.2999444, 5.3553011], [100.2999806, 5.3553092], [100.3000208, 5.355322], [100.3000609, 5.3553386], [100.3001071, 5.3553634], [100.3001444, 5.3553878], [100.3001844, 5.3554166], [100.3002135, 5.3554737], [100.3002291, 5.3555502], [100.3002569, 5.3556123], [100.3002897, 5.355673], [100.3003168, 5.3557444], [100.3003442, 5.3558122], [100.300382, 5.355878], [100.3004203, 5.3559499], [100.3004559, 5.3560203], [100.3004918, 5.3560889], [100.3005259, 5.356162], [100.3005565, 5.356225], [100.3005921, 5.3562908], [100.3006278, 5.3563498], [100.3006657, 5.3564087], [100.3006903, 5.356464], [100.300716, 5.3565235], [100.3007389, 5.3565745], [100.3007751, 5.3566346], [100.3008133, 5.3566942], [100.3008444, 5.35676], [100.300874, 5.3568281], [100.3009074, 5.3568911], [100.3009359, 5.3569493], [100.3009602, 5.3570068], [100.3009844, 5.3570539], [100.3010035, 5.3571108], [100.3010295, 5.3571683], [100.3010513, 5.3572075], [100.3010771, 5.3572637], [100.3010933, 5.3573204], [100.3011314, 5.3573854], [100.3011586, 5.3574409], [100.3011864, 5.3574868], [100.3012047, 5.3575331], [100.3012245, 5.3575697], [100.3012365, 5.3575967], [100.3012489, 5.3576181], [100.3012634, 5.3576373], [100.3012763, 5.3576519]]}}]}