{
  "type": "FeatureCollection",
  "features": [
    {
      "type": "Feature",
      "properties": {
        "id": 205882864,
        "leisure": "pitch",
        "name": "USM Footbal Stadium",
        "name:en": "USM Footbal Stadium",
        "name:zh": "\u9a6c\u6765\u897f\u4e9a\u7406\u79d1\u5927\u5b66\u8db3\u7403\u4f53\u80b2\u9986",
        "name:zh-Hans": "\u9a6c\u6765\u897f\u4e9a\u7406\u79d1\u5927\u5b66\u8db3\u7403\u4f53\u80b2\u9986",
        "name:zh-Hant": "\u99ac\u4f86\u897f\u4e9e\u7406\u79d1\u5927\u5b78\u8db3\u7403\u9ad4\u80b2\u9928",
        "sport": "soccer"
      },
      "geometry": {
        "type": "Polygon",
        "coordinates": [
          [
            [
              100.2933827,
              5.3547643
            ],
            [
              100.2933653,
              5.3547447
            ],
            [
              100.2933535,
              5.3547175
            ],
            [
              100.2931514,
              5.3538634
            ],
            [
              100.2931536,
              5.3538131
            ],
            [
              100.293747,
              5.3536696
            ],
            [
              100.2937837,
              5.3537263
            ],
            [
              100.2939686,
              5.3545528
            ],
            [
              100.2939745,
              5.3545892
            ],
            [
              100.293972,
              5.3546256
            ],
            [
              100.2933827,
              5.3547643
            ]
          ]
        ]
      }
    },
    {
      "type": "Feature",
      "properties": {
        "id": 205882865,
        "access": "private",
        "addr:city": "Gelugor",
        "addr:housenumber": "lorong 2",
        "addr:postcode": "11700",
        "addr:street": "Jalan Stadium USM",
        "leisure": "pitch",
        "name": "Stadium Hoki USM",
        "name:ms": "Stadium Hoki USM",
        "name:zh": "\u9a6c\u6765\u897f\u4e9a\u7406\u79d1\u5927\u5b66\u66f2\u68cd\u7403\u4f53\u80b2\u9986",
        "name:zh-Hans": "\u9a6c\u6765\u897f\u4e9a\u7406\u79d1\u5927\u5b66\u66f2\u68cd\u7403\u4f53\u80b2\u9986",
        "name:zh-Hant": "\u99ac\u4f86\u897f\u4e9e\u7406\u79d1\u5927\u5b78\u66f2\u68cd\u7403\u9ad4\u80b2\u9928",
        "sport": "handball"
      },
      "geometry": {
        "type": "Polygon",
        "coordinates": [
          [
            [
              100.2948109,
              5.3544055
            ],
            [
              100.2946309,
              5.3535889
            ],
            [
              100.2951352,
              5.3534787
            ],
            [
              100.295315,
              5.3542954
            ],
            [
              100.2948109,
              5.3544055
            ]
          ]
        ]
      }
    },
    {
      "type": "Feature",
      "properties": {
        "id": 262968476,
        "amenity": "parking"
      },
      "geometry": {
        "type": "Polygon",
        "coordinates": [
          [
            [
              100.2961245,
              5.3522036
            ],
            [
              100.2969328,
              5.3515996
            ],
            [
              100.2972301,
              5.3513775
            ],
            [
              100.2975533,
              5.3511141
            ],
            [
              100.2973945,
              5.3509881
            ],
            [
              100.2973432,
              5.3509677
            ],
            [
              100.297259,
              5.3510297
            ],
            [
              100.2972282,
              5.3509923
            ],
            [
              100.2971876,
              5.3509432
            ],
            [
              100.2971461,
              5.350893
            ],
            [
              100.2969527,
              5.3506233
            ],
            [
              100.2966396,
              5.350329
            ],
            [
              100.2963591,
              5.350593
            ],
            [
              100.2963566,
              5.3506199
            ],
            [
              100.2963528,
              5.3506594
            ],
            [
              100.2969245,
              5.3514398
            ],
            [
              100.2960325,
              5.3520897
            ],
            [
              100.2961245,
              5.3522036
            ]
          ]
        ]
      }
    },
    {
      "type": "Feature",
      "properties": {
        "id": 266767735,
        "amenity": "parking"
      },
      "geometry": {
        "type": "Polygon",
        "coordinates": [
          [
            [
              100.3040168,
              5.3548563
            ],
            [
              100.3036943,
              5.3542487
            ],
            [
              100.3040968,
              5.3540368
            ],
            [
              100.3043588,
              5.3545303
            ],
            [
              100.3040986,
              5.3546673
            ],
            [
              100.3041592,
              5.3547814
            ],
            [
              100.3040168,
              5.3548563
            ]
          ]
        ]
      }
    },
    {
      "type": "Feature",
      "properties": {
        "id": 266767737,
        "amenity": "parking"
      },
      "geometry": {
        "type": "Polygon",
        "coordinates": [
          [
            [
              100.3019211,
              5.3545141
            ],
            [
              100.3020512,
              5.3540382
            ],
            [
              100.3020944,
              5.3540499
            ],
            [
              100.3021533,
              5.3538344
            ],
            [
              100.3023074,
              5.3538762
            ],
            [
              100.3023654,
              5.3536642
            ],
            [
              100.3024401,
              5.3537545
            ],
            [
              100.3022111,
              5.3545927
            ],
            [
              100.3019211,
              5.3545141
            ]
          ]
        ]
      }
    },
    {
      "type": "Feature",
      "properties": {
        "id": 266767738,
        "amenity": "parking"
      },
      "geometry": {
        "type": "Polygon",
        "coordinates": [
          [
            [
              100.3029255,
              5.3548031
            ],
            [
              100.302953,
              5.3547057
            ],
            [
              100.3027693,
              5.3546543
            ],
            [
              100.3028415,
              5.3543984
            ],
            [
              100.3026117,
              5.3543341
            ],
            [
              100.3028448,
              5.3535082
            ],
            [
              100.3029493,
              5.3535374
            ],
            [
              100.30301,
              5.3533222
            ],
            [
              100.3027824,
              5.3532661
            ],
            [
              100.3023444,
              5.3546331
            ],
            [
              100.3029255,
              5.3548031
            ]
          ]
        ]
      }
    },
    {
      "type": "Feature",
      "properties": {
        "id": 266768839,
        "leisure": "pitch"
      },
      "geometry": {
        "type": "Polygon",
        "coordinates": [
          [
            [
              100.308602,
              5.3591713
            ],
            [
              100.3085385,
              5.3586671
            ],
            [
              100.3085196,
              5.3585194
            ],
            [
              100.308433,
              5.3578804
            ],
            [
              100.309961,
              5.3576663
            ],
            [
              100.3102769,
              5.3590677
            ],
            [
              100.3089054,
              5.3592788
            ],
            [
              100.3088079,
              5.3592636
            ],
            [
              100.3086921,
              5.3592303
            ],
            [
              100.308602,
              5.3591713
            ]
          ]
        ]
      }
    },
    {
      "type": "Feature",
      "properties": {
        "id": 266768850,
        "amenity": "parking",
        "name": "Padang Kawad USM",
        "name:ms": "Padang Kawad USM"
      },
      "geometry": {
        "type": "Polygon",
        "coordinates": [
          [
            [
              100.2933468,
              5.35616
            ],
            [
              100.2933005,
              5.3554189
            ],
            [
              100.2941685,
              5.3553504
            ],
            [
              100.2942871,
              5.3553695
            ],
            [
              100.2949172,
              5.3553273
            ],
            [
              100.2949465,
              5.3560807
            ],
            [
              100.2933468,
              5.35616
            ]
          ]
        ]
      }
    },
    {
      "type": "Feature",
      "properties": {
        "id": 275403521,
        "leisure": "pitch",
        "sport": "basketball"
      },
      "geometry": {
        "type": "Polygon",
        "coordinates": [
          [
            [
              100.302811,
              5.3602972
            ],
            [
              100.3026646,
              5.3603252
            ],
            [
              100.3026195,
              5.3600904
            ],
            [
              100.3027658,
              5.3600625
            ],
            [
              100.302811,
              5.3602972
            ]
          ]
        ]
      }
    },
    {
      "type": "Feature",
      "properties": {
        "id": 275403522,
        "amenity": "parking"
      },
      "geometry": {
        "type": "Polygon",
        "coordinates": [
          [
            [
              100.3066053,
              5.36
            ],
            [
              100.306328,
              5.360046
            ],
            [
              100.3061863,
              5.3592362
            ],
            [
              100.3065282,
              5.3593527
            ],
            [
              100.3066053,
              5.36
            ]
          ]
        ]
      }
    },
    {
      "type": "Feature",
      "properties": {
        "id": 275403523,
        "amenity": "parking"
      },
      "geometry": {
        "type": "Polygon",
        "coordinates": [
          [
            [
              100.3061123,
              5.3593037
            ],
            [
              100.3060014,
              5.3593343
            ],
            [
              100.3059028,
              5.3591411
            ],
            [
              100.3060476,
              5.3589969
            ],
            [
              100.3061123,
              5.3593037
            ]
          ]
        ]
      }
    },
    {
      "type": "Feature",
      "properties": {
        "id": 275403524,
        "amenity": "parking"
      },
      "geometry": {
        "type": "Polygon",
        "coordinates": [
          [
            [
              100.3043004,
              5.3582544
            ],
            [
              100.3041542,
              5.3583384
            ],
            [
              100.3040483,
              5.3582942
            ],
            [
              100.3042294,
              5.357869
            ],
            [
              100.3044234,
              5.357974
            ],
            [
              100.3043004,
              5.3582544
            ]
          ]
        ]
      }
    },
    {
      "type": "Feature",
      "properties": {
        "id": 275403526,
        "amenity": "parking"
      },
      "geometry": {
        "type": "Polygon",
        "coordinates": [
          [
            [
              100.3048022,
              5.3568909
            ],
            [
              100.3046858,
              5.3567752
            ],
            [
              100.3048606,
              5.3566009
            ],
            [
              100.3049077,
              5.3566478
            ],
            [
              100.3049534,
              5.3566022
            ],
            [
              100.3050227,
              5.3566711
            ],
            [
              100.3048022,
              5.3568909
            ]
          ]
        ]
      }
    },
    {
      "type": "Feature",
      "properties": {
        "id": 275403527,
        "amenity": "parking"
      },
      "geometry": {
        "type": "Polygon",
        "coordinates": [
          [
            [
              100.3066511,
              5.3551528
            ],
            [
              100.3065522,
              5.3551467
            ],
            [
              100.3064505,
              5.3551575
            ],
            [
              100.3062358,
              5.3551904
            ],
            [
              100.3062221,
              5.355291
            ],
            [
              100.306183,
              5.3553953
            ],
            [
              100.3063849,
              5.3554666
            ],
            [
              100.306461,
              5.3554104
            ],
            [
              100.3066483,
              5.3552732
            ],
            [
              100.3066511,
              5.3551528
            ]
          ]
        ]
      }
    },
    {
      "type": "Feature",
      "properties": {
        "id": 275404595,
        "amenity": "parking"
      },
      "geometry": {
        "type": "Polygon",
        "coordinates": [
          [
            [
              100.2951704,
              5.3565357
            ],
            [
              100.29475,
              5.3565466
            ],
            [
              100.2947457,
              5.35638
            ],
            [
              100.2951661,
              5.3563692
            ],
            [
              100.2951704,
              5.3565357
            ]
          ]
        ]
      }
    },
    {
      "type": "Feature",
      "properties": {
        "id": 275404606,
        "amenity": "parking"
      },
      "geometry": {
        "type": "Polygon",
        "coordinates": [
          [
            [
              100.290876,
              5.353324
            ],
            [
              100.2903273,
              5.3537814
            ],
            [
              100.2902022,
              5.3536326
            ],
            [
              100.2906379,
              5.3532694
            ],
            [
              100.2905492,
              5.3531639
            ],
            [
              100.2906622,
              5.3530697
            ],
            [
              100.290876,
              5.353324
            ]
          ]
        ]
      }
    },
    {
      "type": "Feature",
      "properties": {
        "id": 275404607,
        "amenity": "parking"
      },
      "geometry": {
        "type": "Polygon",
        "coordinates": [
          [
            [
              100.2916749,
              5.3538934
            ],
            [
              100.291648,
              5.3538427
            ],
            [
              100.2916802,
              5.3538186
            ],
            [
              100.2916641,
              5.3536717
            ],
            [
              100.2915756,
              5.353629
            ],
            [
              100.2915273,
              5.3536584
            ],
            [
              100.2914871,
              5.3535943
            ],
            [
              100.291302,
              5.353848
            ],
            [
              100.2912082,
              5.3540616
            ],
            [
              100.2913128,
              5.3540777
            ],
            [
              100.2914227,
              5.3540216
            ],
            [
              100.2914871,
              5.3540697
            ],
            [
              100.2916051,
              5.3539602
            ],
            [
              100.2915864,
              5.3539308
            ],
            [
              100.2916749,
              5.3538934
            ]
          ]
        ]
      }
    },
    {
      "type": "Feature",
      "properties": {
        "id": 275404608,
        "amenity": "parking"
      },
      "geometry": {
        "type": "Polygon",
        "coordinates": [
          [
            [
              100.2904602,
              5.3549842
            ],
            [
              100.2903004,
              5.3549809
            ],
            [
              100.2903123,
              5.3544101
            ],
            [
              100.290476,
              5.3542285
            ],
            [
              100.2904602,
              5.3549842
            ]
          ]
        ]
      }
    },
    {
      "type": "Feature",
      "properties": {
        "id": 275425695,
        "access": "private",
        "amenity": "parking",
        "building": "parking",
        "parking": "multi-storey"
      },
      "geometry": {
        "type": "Polygon",
        "coordinates": [
          [
            [
              100.2946039,
              5.3624429
            ],
            [
              100.2941757,
              5.362418
            ],
            [
              100.2943094,
              5.3621319
            ],
            [
              100.2943271,
              5.3620927
            ],
            [
              100.2943517,
              5.3620662
            ],
            [
              100.2943763,
              5.362051
            ],
            [
              100.2944134,
              5.3620402
            ],
            [
              100.2944508,
              5.3620412
            ],
            [
              100.2944899,
              5.3620554
            ],
            [
              100.2945254,
              5.3620859
            ],
            [
              100.2945475,
              5.3621298
            ],
            [
              100.2946039,
              5.3624429
            ]
          ]
        ]
      }
    },
    {
      "type": "Feature",
      "properties": {
        "id": 275425703,
        "access": "private",
        "amenity": "parking",
        "building": "parking",
        "parking": "multi-storey"
      },
      "geometry": {
        "type": "Polygon",
        "coordinates": [
          [
            [
              100.2968905,
              5.3610504
            ],
            [
              100.296611,
              5.3604598
            ],
            [
              100.2968676,
              5.3603367
            ],
            [
              100.297147,
              5.3609434
            ],
            [
              100.2968905,
              5.3610504
            ]
          ]
        ]
      }
    },
    {
      "type": "Feature",
      "properties": {
        "id": 275429777,
        "leisure": "pitch",
        "sport": "basketball"
      },
      "geometry": {
        "type": "Polygon",
        "coordinates": [
          [
            [
              100.3049137,
              5.3631507
            ],
            [
              100.3048265,
              5.363019
            ],
            [
              100.304917,
              5.3629597
            ],
            [
              100.3050042,
              5.3630914
            ],
            [
              100.3049137,
              5.3631507
            ]
          ]
        ]
      }
    },
    {
      "type": "Feature",
      "properties": {
        "id": 591501244,
        "access": "permissive",
        "amenity": "parking",
        "capacity": "20",
        "fee": "no",
        "operator": "Staff only",
        "operator:type": "university",
        "supervised": "yes"
      },
      "geometry": {
        "type": "Polygon",
        "coordinates": [
          [
            [
              100.2980642,
              5.3560035
            ],
            [
              100.2985964,
              5.3559908
            ],
            [
              100.2985964,
              5.3557915
            ],
            [
              100.2980642,
              5.3558064
            ],
            [
              100.2980642,
              5.3560035
            ]
          ]
        ]
      }
    },
    {
      "type": "Feature",
      "properties": {
        "id": 697079138,
        "leisure": "pitch",
        "sport": "basketball"
      },
      "geometry": {
        "type": "Polygon",
        "coordinates": [
          [
            [
              100.2923899,
              5.3525803
            ],
            [
              100.2923127,
              5.3522848
            ],
            [
              100.2925924,
              5.3522122
            ],
            [
              100.2926698,
              5.3525078
            ],
            [
              100.2923899,
              5.3525803
            ]
          ]
        ]
      }
    },
    {
      "type": "Feature",
      "properties": {
        "id": 697079139,
        "leisure": "pitch",
        "sport": "netball"
      },
      "geometry": {
        "type": "Polygon",
        "coordinates": [
          [
            [
              100.2939848,
              5.353458
            ],
            [
              100.2939142,
              5.3531931
            ],
            [
              100.294045,
              5.3531585
            ],
            [
              100.2941156,
              5.3534235
            ],
            [
              100.2939848,
              5.353458
            ]
          ]
        ]
      }
    },
    {
      "type": "Feature",
      "properties": {
        "id": 943218508,
        "leisure": "pitch",
        "sport": "soccer"
      },
      "geometry": {
        "type": "Polygon",
        "coordinates": [
          [
            [
              100.3088245,
              5.361113
            ],
            [
              100.3094408,
              5.3610006
            ],
            [
              100.3092676,
              5.3600595
            ],
            [
              100.3086514,
              5.3601719
            ],
            [
              100.3088245,
              5.361113
            ]
          ]
        ]
      }
    },
    {
      "type": "Feature",
      "properties": {
        "id": 943218509,
        "leisure": "pitch",
        "name": "Padang Kopa B",
        "name:ms": "Padang Kopa B",
        "sport": "soccer"
      },
      "geometry": {
        "type": "Polygon",
        "coordinates": [
          [
            [
              100.3095198,
              5.3609915
            ],
            [
              100.3101361,
              5.360879
            ],
            [
              100.3099629,
              5.359938
            ],
            [
              100.3093467,
              5.3600503
            ],
            [
              100.3095198,
              5.3609915
            ]
          ]
        ]
      }
    },
    {
      "type": "Feature",
      "properties": {
        "id": 943218510,
        "leisure": "pitch",
        "name": "Padang Mini Kopa Arena",
        "name:ms": "Padang Mini Kopa Arena",
        "sport": "soccer"
      },
      "geometry": {
        "type": "Polygon",
        "coordinates": [
          [
            [
              100.3086378,
              5.3601269
            ],
            [
              100.3091346,
              5.3600269
            ],
            [
              100.3090701,
              5.3597096
            ],
            [
              100.3085734,
              5.3598097
            ],
            [
              100.3086378,
              5.3601269
            ]
          ]
        ]
      }
    },
    {
      "type": "Feature",
      "properties": {
        "id": 943218512,
        "leisure": "pitch"
      },
      "geometry": {
        "type": "Polygon",
        "coordinates": [
          [
            [
              100.3109911,
              5.3627609
            ],
            [
              100.3109428,
              5.3624391
            ],
            [
              100.3103601,
              5.3594487
            ],
            [
              100.3099123,
              5.3595171
            ],
            [
              100.3101585,
              5.3609017
            ],
            [
              100.3087851,
              5.3611668
            ],
            [
              100.3087598,
              5.3610449
            ],
            [
              100.3086806,
              5.3608902
            ],
            [
              100.3084741,
              5.3602526
            ],
            [
              100.3083329,
              5.3607754
            ],
            [
              100.3085421,
              5.3608548
            ],
            [
              100.3087897,
              5.362173
            ],
            [
              100.3088347,
              5.3622373
            ],
            [
              100.3089143,
              5.3622861
            ],
            [
              100.3105567,
              5.3625971
            ],
            [
              100.3105633,
              5.3627062
            ],
            [
              100.3109911,
              5.3627609
            ]
          ]
        ]
      }
    },
    {
      "type": "Feature",
      "properties": {
        "id": 988470542,
        "amenity": "parking"
      },
      "geometry": {
        "type": "Polygon",
        "coordinates": [
          [
            [
              100.2975276,
              5.351658
            ],
            [
              100.2975743,
              5.3516028
            ],
            [
              100.297557,
              5.3515883
            ],
            [
              100.2976326,
              5.3514989
            ],
            [
              100.2978718,
              5.3516992
            ],
            [
              100.2981254,
              5.3519117
            ],
            [
              100.2980456,
              5.3520061
            ],
            [
              100.298021,
              5.3519855
            ],
            [
              100.2979786,
              5.3520356
            ],
            [
              100.2975276,
              5.351658
            ]
          ]
        ]
      }
    },
    {
      "type": "Feature",
      "properties": {
        "id": 993227670,
        "leisure": "pitch",
        "sport": "soccer"
      },
      "geometry": {
        "type": "Polygon",
        "coordinates": [
          [
            [
              100.308115,
              5.3522507
            ],
            [
              100.3081765,
              5.351691
            ],
            [
              100.3084653,
              5.3517224
            ],
            [
              100.3084039,
              5.3522822
            ],
            [
              100.308115,
              5.3522507
            ]
          ]
        ]
      }
    },
    {
      "type": "Feature",
      "properties": {
        "id": 1030965783,
        "leisure": "pitch",
        "sport": "tennis"
      },
      "geometry": {
        "type": "Polygon",
        "coordinates": [
          [
            [
              100.2932381,
              5.353352
            ],
            [
              100.2933393,
              5.353325
            ],
            [
              100.2932836,
              5.3531181
            ],
            [
              100.2931823,
              5.3531452
            ],
            [
              100.2932381,
              5.353352
            ]
          ]
        ]
      }
    },
    {
      "type": "Feature",
      "properties": {
        "id": 1030965784,
        "leisure": "pitch",
        "sport": "tennis"
      },
      "geometry": {
        "type": "Polygon",
        "coordinates": [
          [
            [
              100.293398,
              5.3533133
            ],
            [
              100.2934993,
              5.3532863
            ],
            [
              100.2934435,
              5.3530794
            ],
            [
              100.2933422,
              5.3531065
            ],
            [
              100.293398,
              5.3533133
            ]
          ]
        ]
      }
    },
    {
      "type": "Feature",
      "properties": {
        "id": 1030965785,
        "leisure": "pitch",
        "sport": "tennis"
      },
      "geometry": {
        "type": "Polygon",
        "coordinates": [
          [
            [
              100.2935553,
              5.3532698
            ],
            [
              100.2936566,
              5.3532427
            ],
            [
              100.2936008,
              5.3530359
            ],
            [
              100.2934995,
              5.353063
            ],
            [
              100.2935553,
              5.3532698
            ]
          ]
        ]
      }
    },
    {
      "type": "Feature",
      "properties": {
        "id": 1030965786,
        "leisure": "pitch",
        "sport": "tennis"
      },
      "geometry": {
        "type": "Polygon",
        "coordinates": [
          [
            [
              100.2937148,
              5.3532285
            ],
            [
              100.2938161,
              5.3532014
            ],
            [
              100.2937603,
              5.3529945
            ],
            [
              100.293659,
              5.3530216
            ],
            [
              100.2937148,
              5.3532285
            ]
          ]
        ]
      }
    },
    {
      "type": "Feature",
      "properties": {
        "id": 1030965787,
        "leisure": "pitch",
        "sport": "tennis"
      },
      "geometry": {
        "type": "Polygon",
        "coordinates": [
          [
            [
              100.293315,
              5.3529784
            ],
            [
              100.2934163,
              5.3529513
            ],
            [
              100.2933605,
              5.3527444
            ],
            [
              100.2932592,
              5.3527715
            ],
            [
              100.293315,
              5.3529784
            ]
          ]
        ]
      }
    },
    {
      "type": "Feature",
      "properties": {
        "id": 1030965788,
        "leisure": "pitch",
        "sport": "tennis"
      },
      "geometry": {
        "type": "Polygon",
        "coordinates": [
          [
            [
              100.2934734,
              5.352937
            ],
            [
              100.2935747,
              5.35291
            ],
            [
              100.2935189,
              5.3527031
            ],
            [
              100.2934176,
              5.3527302
            ],
            [
              100.2934734,
              5.352937
            ]
          ]
        ]
      }
    },
    {
      "type": "Feature",
      "properties": {
        "id": 1030965789,
        "leisure": "pitch",
        "sport": "tennis"
      },
      "geometry": {
        "type": "Polygon",
        "coordinates": [
          [
            [
              100.2930703,
              5.3526956
            ],
            [
              100.2931716,
              5.3526685
            ],
            [
              100.2931158,
              5.3524616
            ],
            [
              100.2930145,
              5.3524887
            ],
            [
              100.2930703,
              5.3526956
            ]
          ]
        ]
      }
    },
    {
      "type": "Feature",
      "properties": {
        "id": 1030965790,
        "leisure": "pitch",
        "sport": "tennis"
      },
      "geometry": {
        "type": "Polygon",
        "coordinates": [
          [
            [
              100.2932287,
              5.3526564
            ],
            [
              100.29333,
              5.3526294
            ],
            [
              100.2932742,
              5.3524225
            ],
            [
              100.2931729,
              5.3524496
            ],
            [
              100.2932287,
              5.3526564
            ]
          ]
        ]
      }
    },
    {
      "type": "Feature",
      "properties": {
        "id": 1031054655,
        "amenity": "parking"
      },
      "geometry": {
        "type": "Polygon",
        "coordinates": [
          [
            [
              100.3088119,
              5.3576289
            ],
            [
              100.3087446,
              5.3574688
            ],
            [
              100.3087661,
              5.3574599
            ],
            [
              100.3086564,
              5.3571988
            ],
            [
              100.3089205,
              5.3570888
            ],
            [
              100.3089853,
              5.3572431
            ],
            [
              100.3089592,
              5.357254
            ],
            [
              100.3090188,
              5.3573959
            ],
            [
              100.308919,
              5.3575842
            ],
            [
              100.3088119,
              5.3576289
            ]
          ]
        ]
      }
    },
    {
      "type": "Feature",
      "properties": {
        "id": 1031068761,
        "leisure": "pitch",
        "lit": "no",
        "sport": "basketball",
        "surface": "concrete"
      },
      "geometry": {
        "type": "Polygon",
        "coordinates": [
          [
            [
              100.3007822,
              5.3574238
            ],
            [
              100.3007286,
              5.3573129
            ],
            [
              100.3009358,
              5.3572135
            ],
            [
              100.3009895,
              5.3573244
            ],
            [
              100.3007822,
              5.3574238
            ]
          ]
        ]
      }
    },
    {
      "type": "Feature",
      "properties": {
        "id": 1031068762,
        "leisure": "pitch",
        "lit": "yes",
        "sport": "basketball",
        "surface": "concrete"
      },
      "geometry": {
        "type": "Polygon",
        "coordinates": [
          [
            [
              100.3007337,
              5.3572164
            ],
            [
              100.3006253,
              5.3569947
            ],
            [
              100.3007426,
              5.3569379
            ],
            [
              100.3008511,
              5.3571595
            ],
            [
              100.3007337,
              5.3572164
            ]
          ]
        ]
      }
    },
    {
      "type": "Feature",
      "properties": {
        "id": 1031081039,
        "amenity": "parking"
      },
      "geometry": {
        "type": "Polygon",
        "coordinates": [
          [
            [
              100.3018425,
              5.3569792
            ],
            [
              100.3018198,
              5.3570097
            ],
            [
              100.3017743,
              5.3569762
            ],
            [
              100.3012226,
              5.3569819
            ],
            [
              100.3014255,
              5.3573951
            ],
            [
              100.3015734,
              5.3573904
            ],
            [
              100.3018868,
              5.3573871
            ],
            [
              100.3018861,
              5.3573331
            ],
            [
              100.3021187,
              5.35733
            ],
            [
              100.3022736,
              5.3573749
            ],
            [
              100.3022828,
              5.3573435
            ],
            [
              100.3018425,
              5.3569792
            ]
          ]
        ]
      }
    },
    {
      "type": "Feature",
      "properties": {
        "id": 1031136413,
        "amenity": "parking"
      },
      "geometry": {
        "type": "Polygon",
        "coordinates": [
          [
            [
              100.3029524,
              5.3558029
            ],
            [
              100.3032073,
              5.3556394
            ],
            [
              100.3028762,
              5.3551277
            ],
            [
              100.3027467,
              5.3552106
            ],
            [
              100.3029303,
              5.3554947
            ],
            [
              100.302805,
              5.355575
            ],
            [
              100.3028283,
              5.3556109
            ],
            [
              100.3029524,
              5.3558029
            ]
          ]
        ]
      }
    },
    {
      "type": "Feature",
      "properties": {
        "id": 1057804305,
        "access": "yes",
        "amenity": "parking",
        "fee": "no",
        "parking": "surface"
      },
      "geometry": {
        "type": "Polygon",
        "coordinates": [
          [
            [
              100.300896,
              5.3576333
            ],
            [
              100.3008111,
              5.3574647
            ],
            [
              100.301042,
              5.3573496
            ],
            [
              100.3010974,
              5.3574595
            ],
            [
              100.3010073,
              5.3575045
            ],
            [
              100.3010368,
              5.3575631
            ],
            [
              100.300896,
              5.3576333
            ]
          ]
        ]
      }
    },
    {
      "type": "Feature",
      "properties": {
        "id": 1353572817,
        "landuse": "grass"
      },
      "geometry": {
        "type": "Polygon",
        "coordinates": [
          [
            [
              100.3013507,
              5.3553196
            ],
            [
              100.3013511,
              5.3551269
            ],
            [
              100.301253,
              5.3551267
            ],
            [
              100.3012531,
              5.355094
            ],
            [
              100.3012086,
              5.3550939
            ],
            [
              100.3012109,
              5.3553195
            ],
            [
              100.3012351,
              5.3553193
            ],
            [
              100.3013507,
              5.3553196
            ]
          ]
        ]
      }
    },
    {
      "type": "Feature",
      "properties": {
        "id": 1353572818,
        "landuse": "grass"
      },
      "geometry": {
        "type": "Polygon",
        "coordinates": [
          [
            [
              100.3010796,
              5.3553057
            ],
            [
              100.3010762,
              5.3550854
            ],
            [
              100.3010324,
              5.3550861
            ],
            [
              100.3010329,
              5.355121
            ],
            [
              100.3010035,
              5.3551215
            ],
            [
              100.301003,
              5.3550862
            ],
            [
              100.300958,
              5.3550869
            ],
            [
              100.3009613,
              5.3553075
            ],
            [
              100.3010796,
              5.3553057
            ]
          ]
        ]
      }
    },
    {
      "type": "Feature",
      "properties": {
        "id": 1353883029,
        "access": "permit",
        "amenity": "parking"
      },
      "geometry": {
        "type": "Polygon",
        "coordinates": [
          [
            [
              100.3015753,
              5.3575214
            ],
            [
              100.3015734,
              5.3573904
            ],
            [
              100.3018868,
              5.3573871
            ],
            [
              100.3021164,
              5.3573846
            ],
            [
              100.3022654,
              5.3574225
            ],
            [
              100.3022739,
              5.3574246
            ],
            [
              100.3022744,
              5.3574523
            ],
            [
              100.3022746,
              5.3574839
            ],
            [
              100.3021713,
              5.3574844
            ],
            [
              100.3021715,
              5.357516
            ],
            [
              100.3015753,
              5.3575214
            ]
          ]
        ]
      }
    },
    {
      "type": "Feature",
      "properties": {
        "id": 1353883031,
        "landuse": "grass"
      },
      "geometry": {
        "type": "Polygon",
        "coordinates": [
          [
            [
              100.3013728,
              5.3562327
            ],
            [
              100.3015318,
              5.3562332
            ],
            [
              100.3015322,
              5.3561141
            ],
            [
              100.3014947,
              5.3561139
            ],
            [
              100.3014949,
              5.3560454
            ],
            [
              100.3015342,
              5.3560455
            ],
            [
              100.3015345,
              5.3559266
            ],
            [
              100.301467,
              5.3559264
            ],
            [
              100.3013737,
              5.3559261
            ],
            [
              100.3013728,
              5.3562327
            ]
          ]
        ]
      }
    },
    {
      "type": "Feature",
      "properties": {
        "id": 1353883053,
        "landuse": "grass"
      },
      "geometry": {
        "type": "Polygon",
        "coordinates": [
          [
            [
              100.3036806,
              5.3569226
            ],
            [
              100.3035664,
              5.3570284
            ],
            [
              100.3036123,
              5.3570805
            ],
            [
              100.3036377,
              5.3570947
            ],
            [
              100.3036647,
              5.3570979
            ],
            [
              100.3036932,
              5.3570947
            ],
            [
              100.3037186,
              5.3570774
            ],
            [
              100.3037995,
              5.3569716
            ],
            [
              100.303698,
              5.3568927
            ],
            [
              100.3036329,
              5.3568048
            ],
            [
              100.3036413,
              5.3567944
            ],
            [
              100.3036274,
              5.3567834
            ],
            [
              100.3037389,
              5.3566428
            ],
            [
              100.3037417,
              5.3566044
            ],
            [
              100.3035579,
              5.3563453
            ],
            [
              100.3034506,
              5.3561435
            ],
            [
              100.3034078,
              5.3561756
            ],
            [
              100.3033931,
              5.3561987
            ],
            [
              100.3033881,
              5.3562196
            ],
            [
              100.3033699,
              5.3563132
            ],
            [
              100.3033714,
              5.3563412
            ],
            [
              100.3033835,
              5.3563653
            ],
            [
              100.3035488,
              5.3565709
            ],
            [
              100.3035923,
              5.356668
            ],
            [
              100.3035944,
              5.3568034
            ],
            [
              100.3035979,
              5.356823
            ],
            [
              100.3036047,
              5.3568414
            ],
            [
              100.3036806,
              5.3569226
            ]
          ]
        ]
      }
    },
    {
      "type": "Feature",
      "properties": {
        "id": 1354561989,
        "access": "permit",
        "amenity": "parking",
        "parking": "surface"
      },
      "geometry": {
        "type": "Polygon",
        "coordinates": [
          [
            [
              100.3021225,
              5.3551685
            ],
            [
              100.3021751,
              5.3551686
            ],
            [
              100.3021751,
              5.3550552
            ],
            [
              100.3022372,
              5.3550552
            ],
            [
              100.3022372,
              5.3549271
            ],
            [
              100.3021749,
              5.3549271
            ],
            [
              100.3021749,
              5.3548742
            ],
            [
              100.301893,
              5.3548414
            ],
            [
              100.301893,
              5.3548273
            ],
            [
              100.301715,
              5.3546732
            ],
            [
              100.3015956,
              5.3546733
            ],
            [
              100.3015957,
              5.3547628
            ],
            [
              100.3015957,
              5.3547726
            ],
            [
              100.3016291,
              5.3547726
            ],
            [
              100.3016291,
              5.3551685
            ],
            [
              100.3018781,
              5.3551685
            ],
            [
              100.3019862,
              5.3551685
            ],
            [
              100.3020342,
              5.3551685
            ],
            [
              100.3021225,
              5.3551685
            ]
          ]
        ]
      }
    },
    {
      "type": "Feature",
      "properties": {
        "id": 1354565632,
        "landuse": "grass"
      },
      "geometry": {
        "type": "Polygon",
        "coordinates": [
          [
            [
              100.3014255,
              5.3573951
            ],
            [
              100.301438,
              5.3574277
            ],
            [
              100.3014426,
              5.357455
            ],
            [
              100.3014412,
              5.3574807
            ],
            [
              100.3014231,
              5.357548
            ],
            [
              100.3013914,
              5.3576153
            ],
            [
              100.3013523,
              5.357669
            ],
            [
              100.3008159,
              5.3566306
            ],
            [
              100.3008398,
              5.3566086
            ],
            [
              100.3008913,
              5.3565866
            ],
            [
              100.3009392,
              5.3565793
            ],
            [
              100.3009797,
              5.3565848
            ],
            [
              100.3010183,
              5.3565976
            ],
            [
              100.3010496,
              5.3566196
            ],
            [
              100.3010802,
              5.3566629
            ],
            [
              100.3012226,
              5.3569819
            ],
            [
              100.3014255,
              5.3573951
            ]
          ]
        ]
      }
    },
    {
      "type": "Feature",
      "properties": {
        "id": 1354673745,
        "access": "permit",
        "amenity": "parking"
      },
      "geometry": {
        "type": "Polygon",
        "coordinates": [
          [
            [
              100.3019633,
              5.3584862
            ],
            [
              100.3019617,
              5.3583338
            ],
            [
              100.3020173,
              5.3583332
            ],
            [
              100.3020167,
              5.3582763
            ],
            [
              100.3022038,
              5.3582743
            ],
            [
              100.302206,
              5.3584836
            ],
            [
              100.3019633,
              5.3584862
            ]
          ]
        ]
      }
    },
    {
      "type": "Feature",
      "properties": {
        "id": 1354673746,
        "landuse": "grass"
      },
      "geometry": {
        "type": "Polygon",
        "coordinates": [
          [
            [
              100.3026185,
              5.358471
            ],
            [
              100.3026185,
              5.3584764
            ],
            [
              100.3025992,
              5.3584767
            ],
            [
              100.3023485,
              5.3584795
            ],
            [
              100.3023462,
              5.3582766
            ],
            [
              100.3025355,
              5.3582745
            ],
            [
              100.3025361,
              5.3583289
            ],
            [
              100.3025904,
              5.3583283
            ],
            [
              100.3026168,
              5.358328
            ],
            [
              100.3026185,
              5.358471
            ]
          ]
        ]
      }
    },
    {
      "type": "Feature",
      "properties": {
        "id": 1354673759,
        "landuse": "grass"
      },
      "geometry": {
        "type": "Polygon",
        "coordinates": [
          [
            [
              100.3036533,
              5.3572883
            ],
            [
              100.3037476,
              5.3572654
            ],
            [
              100.3037997,
              5.3572006
            ],
            [
              100.3037911,
              5.3571954
            ],
            [
              100.3037946,
              5.3571898
            ],
            [
              100.303749,
              5.3571638
            ],
            [
              100.3036512,
              5.3572127
            ],
            [
              100.3036484,
              5.357198
            ],
            [
              100.3036336,
              5.3571934
            ],
            [
              100.303628,
              5.3572146
            ],
            [
              100.3036395,
              5.357278
            ],
            [
              100.3036504,
              5.3572756
            ],
            [
              100.3036533,
              5.3572883
            ]
          ]
        ]
      }
    },
    {
      "type": "Feature",
      "properties": {
        "id": 1354673760,
        "landuse": "grass"
      },
      "geometry": {
        "type": "Polygon",
        "coordinates": [
          [
            [
              100.3038679,
              5.357192
            ],
            [
              100.3039557,
              5.3570525
            ],
            [
              100.3040196,
              5.3569668
            ],
            [
              100.3040328,
              5.3568774
            ],
            [
              100.3040146,
              5.356862
            ],
            [
              100.3040081,
              5.3568599
            ],
            [
              100.3040015,
              5.3568605
            ],
            [
              100.3039957,
              5.3568627
            ],
            [
              100.3039904,
              5.3568665
            ],
            [
              100.3039781,
              5.3568806
            ],
            [
              100.3039667,
              5.3568708
            ],
            [
              100.3038716,
              5.3569861
            ],
            [
              100.3037564,
              5.3571263
            ],
            [
              100.3037717,
              5.3571436
            ],
            [
              100.3038085,
              5.357167
            ],
            [
              100.3038134,
              5.357159
            ],
            [
              100.3038679,
              5.357192
            ]
          ]
        ]
      }
    },
    {
      "type": "Feature",
      "properties": {
        "id": 1452244184,
        "access": "yes",
        "amenity": "parking",
        "capacity": "3",
        "fee": "no"
      },
      "geometry": {
        "type": "Polygon",
        "coordinates": [
          [
            [
              100.2979804,
              5.3563085
            ],
            [
              100.2980313,
              5.356306
            ],
            [
              100.298028,
              5.3562439
            ],
            [
              100.2980258,
              5.3562025
            ],
            [
              100.2979753,
              5.3562015
            ],
            [
              100.2979804,
              5.3563085
            ]
          ]
        ]
      }
    },
    {
      "type": "Feature",
      "properties": {
        "id": 1452245376,
        "amenity": "parking",
        "capacity": "3"
      },
      "geometry": {
        "type": "Polygon",
        "coordinates": [
          [
            [
              100.2976489,
              5.3565664
            ],
            [
              100.2976477,
              5.356424
            ],
            [
              100.2977094,
              5.3564189
            ],
            [
              100.2977161,
              5.3565585
            ],
            [
              100.2976489,
              5.3565664
            ]
          ]
        ]
      }
    },
    {
      "type": "Feature",
      "properties": {
        "id": 1452249776,
        "amenity": "parking",
        "capacity": "7",
        "operator": "Staf parking area",
        "operator:type": "university"
      },
      "geometry": {
        "type": "Polygon",
        "coordinates": [
          [
            [
              100.2984666,
              5.3578952
            ],
            [
              100.2984729,
              5.3578319
            ],
            [
              100.2985678,
              5.3578332
            ],
            [
              100.2985736,
              5.3578901
            ],
            [
              100.2984666,
              5.3578952
            ]
          ]
        ]
      }
    },
    {
      "type": "Feature",
      "properties": {
        "id": 1452249852,
        "access": "private",
        "amenity": "parking",
        "capacity": "5",
        "operator": "Staf parking area",
        "operator:type": "university"
      },
      "geometry": {
        "type": "Polygon",
        "coordinates": [
          [
            [
              100.299001,
              5.3574767
            ],
            [
              100.298992,
              5.3576824
            ],
            [
              100.2990231,
              5.3576829
            ],
            [
              100.299033,
              5.3574765
            ],
            [
              100.299001,
              5.3574767
            ]
          ]
        ]
      }
    },
    {
      "type": "Feature",
      "properties": {
        "id": 1452255652,
        "access": "yes",
        "amenity": "parking",
        "capacity": "30"
      },
      "geometry": {
        "type": "Polygon",
        "coordinates": [
          [
            [
              100.2977822,
              5.3566484
            ],
            [
              100.2979791,
              5.356646
            ],
            [
              100.2979446,
              5.3561688
            ],
            [
              100.2977694,
              5.3561851
            ],
            [
              100.2977822,
              5.3566484
            ]
          ]
        ]
      }
    },
    {
      "type": "Feature",
      "properties": {
        "id": 1453006728,
        "amenity": "parking",
        "operator": "Parking Padang Kopa"
      },
      "geometry": {
        "type": "Polygon",
        "coordinates": [
          [
            [
              100.3093502,
              5.3599836
            ],
            [
              100.3099291,
              5.3598835
            ],
            [
              100.3098789,
              5.3596467
            ],
            [
              100.3092946,
              5.3597467
            ],
            [
              100.3093502,
              5.3599836
            ]
          ]
        ]
      }
    },
    {
      "type": "Feature",
      "properties": {
        "id": 1487964046,
        "landuse": "grass"
      },
      "geometry": {
        "type": "Polygon",
        "coordinates": [
          [
            [
              100.3100842,
              5.3523503
            ],
            [
              100.3101754,
              5.3525693
            ],
            [
              100.3103176,
              5.3528644
            ],
            [
              100.310504,
              5.3531875
            ],
            [
              100.3107226,
              5.353504
            ],
            [
              100.3109694,
              5.3538164
            ],
            [
              100.3114334,
              5.3543799
            ],
            [
              100.3117539,
              5.3547939
            ],
            [
              100.3122032,
              5.3553426
            ],
            [
              100.3126913,
              5.3559462
            ],
            [
              100.3130105,
              5.3563147
            ],
            [
              100.3132331,
              5.3565858
            ],
            [
              100.3131959,
              5.3565701
            ],
            [
              100.3131711,
              5.3565694
            ],
            [
              100.3131346,
              5.3565754
            ],
            [
              100.3131071,
              5.3565891
            ],
            [
              100.3130786,
              5.3566081
            ],
            [
              100.3130568,
              5.3566362
            ],
            [
              100.31304,
              5.3566729
            ],
            [
              100.3130313,
              5.3567063
            ],
            [
              100.313034,
              5.356745
            ],
            [
              100.3130528,
              5.3567894
            ],
            [
              100.3129622,
              5.3566719
            ],
            [
              100.3127121,
              5.3563374
            ],
            [
              100.3124586,
              5.3560296
            ],
            [
              100.3121529,
              5.3556377
            ],
            [
              100.3119215,
              5.355336
            ],
            [
              100.3116989,
              5.3550536
            ],
            [
              100.3114347,
              5.3547057
            ],
            [
              100.3111826,
              5.3543779
            ],
            [
              100.3109352,
              5.3540635
            ],
            [
              100.3107957,
              5.3538739
            ],
            [
              100.3107011,
              5.3537457
            ],
            [
              100.3106052,
              5.3535921
            ],
            [
              100.3105328,
              5.353474
            ],
            [
              100.3104376,
              5.3532884
            ],
            [
              100.3103464,
              5.3531008
            ],
            [
              100.3102706,
              5.3529278
            ],
            [
              100.310225,
              5.3527943
            ],
            [
              100.3101788,
              5.3526494
            ],
            [
              100.3101265,
              5.3524832
            ],
            [
              100.3100842,
              5.3523503
            ]
          ]
        ]
      }
    },
    {
      "type": "Feature",
      "properties": {
        "id": 1490456294,
        "landuse": "grass"
      },
      "geometry": {
        "type": "Polygon",
        "coordinates": [
          [
            [
              100.3089644,
              5.3568248
            ],
            [
              100.3089765,
              5.3567326
            ],
            [
              100.3090207,
              5.3566138
            ],
            [
              100.3090918,
              5.3564148
            ],
            [
              100.3091522,
              5.3562319
            ],
            [
              100.3091682,
              5.3560477
            ],
            [
              100.3091548,
              5.3559101
            ],
            [
              100.3091079,
              5.3561371
            ],
            [
              100.3090878,
              5.356324
            ],
            [
              100.3090073,
              5.3565364
            ],
            [
              100.308896,
              5.3566418
            ],
            [
              100.3089041,
              5.356746
            ],
            [
              100.3089644,
              5.3568248
            ]
          ]
        ]
      }
    }
  ]
}