{
  "type": "FeatureCollection",
  "features": [
    {
      "type": "Feature",
      "properties": {
        "name": "Full Commute Trajectory",
        "description": "Desasiswa Restu to Dewan Tuanku Syed Putra (DTSP)",
        "start_time": "06:47:10",
        "end_time": "09:18:57",
        "total_points": 12502,
        "sampled_points": 1251
      },
      "geometry": {
        "type": "LineString",
        "coordinates": [
          [
            100.2898076,
            5.3572768
          ],
          [
            100.289841,
            5.3572048
          ],
          [
            100.2898265,
            5.3572203
          ],
          [
            100.2898261,
            5.3572235
          ],
          [
            100.2898268,
            5.3572254
          ],
          [
            100.2898257,
            5.3572326
          ],
          [
            100.289827,
            5.3572377
          ],
          [
            100.2898243,
            5.3572421
          ],
          [
            100.2898245,
            5.3572435
          ],
          [
            100.2898278,
            5.3572418
          ],
          [
            100.289826,
            5.3572376
          ],
          [
            100.2898236,
            5.3572366
          ],
          [
            100.2898231,
            5.3572364
          ],
          [
            100.289823,
            5.3572379
          ],
          [
            100.289825,
            5.3572379
          ],
          [
            100.2898222,
            5.3572395
          ],
          [
            100.2898234,
            5.357241
          ],
          [
            100.2898334,
            5.3572689
          ],
          [
            100.2898735,
            5.3573241
          ],
          [
            100.2898956,
            5.3573405
          ],
          [
            100.2899109,
            5.3573752
          ],
          [
            100.2899379,
            5.3574128
          ],
          [
            100.2899487,
            5.3574596
          ],
          [
            100.2899678,
            5.3574914
          ],
          [
            100.2900086,
            5.3574912
          ],
          [
            100.2900498,
            5.3574854
          ],
          [
            100.2900882,
            5.3574709
          ],
          [
            100.290128,
            5.3574604
          ],
          [
            100.290164,
            5.3574556
          ],
          [
            100.2901945,
            5.3574518
          ],
          [
            100.2902316,
            5.3574359
          ],
          [
            100.2902662,
            5.3574299
          ],
          [
            100.2902951,
            5.3574263
          ],
          [
            100.2903064,
            5.357417
          ],
          [
            100.2903226,
            5.3574054
          ],
          [
            100.2903361,
            5.3574085
          ],
          [
            100.2903419,
            5.3574197
          ],
          [
            100.2903456,
            5.3574198
          ],
          [
            100.2903499,
            5.3574216
          ],
          [
            100.2903499,
            5.3574244
          ],
          [
            100.2903519,
            5.3574251
          ],
          [
            100.2903533,
            5.3574284
          ],
          [
            100.2903539,
            5.3574306
          ],
          [
            100.2903531,
            5.3574325
          ],
          [
            100.2903448,
            5.357426
          ],
          [
            100.2903355,
            5.3574144
          ],
          [
            100.2903296,
            5.3574109
          ],
          [
            100.2903316,
            5.3574134
          ],
          [
            100.2903375,
            5.35742
          ],
          [
            100.2903348,
            5.3574214
          ],
          [
            100.2903306,
            5.3574195
          ],
          [
            100.2903292,
            5.3574241
          ],
          [
            100.2903035,
            5.3574363
          ],
          [
            100.2903015,
            5.3574378
          ],
          [
            100.2903009,
            5.3574369
          ],
          [
            100.2902857,
            5.3574394
          ],
          [
            100.2902777,
            5.3574458
          ],
          [
            100.2902689,
            5.3574471
          ],
          [
            100.2902645,
            5.3574457
          ],
          [
            100.2902615,
            5.3574443
          ],
          [
            100.2902581,
            5.3574522
          ],
          [
            100.290257,
            5.3574535
          ],
          [
            100.2902521,
            5.3574521
          ],
          [
            100.2902512,
            5.3574544
          ],
          [
            100.2902547,
            5.3574496
          ],
          [
            100.2902542,
            5.35745
          ],
          [
            100.2902525,
            5.3574507
          ],
          [
            100.2902557,
            5.3574456
          ],
          [
            100.2902569,
            5.3574429
          ],
          [
            100.2902571,
            5.3574408
          ],
          [
            100.2902546,
            5.3574447
          ],
          [
            100.2902498,
            5.357445
          ],
          [
            100.2902528,
            5.3574441
          ],
          [
            100.2902586,
            5.3574408
          ],
          [
            100.2902561,
            5.3574383
          ],
          [
            100.290256,
            5.3574342
          ],
          [
            100.2902588,
            5.3574299
          ],
          [
            100.2902538,
            5.3574334
          ],
          [
            100.2902579,
            5.3574344
          ],
          [
            100.2902571,
            5.357429
          ],
          [
            100.2902544,
            5.3574173
          ],
          [
            100.2902615,
            5.357402
          ],
          [
            100.2902618,
            5.3574
          ],
          [
            100.2902681,
            5.3573974
          ],
          [
            100.2902667,
            5.3573965
          ],
          [
            100.2902662,
            5.3573917
          ],
          [
            100.2902694,
            5.357394
          ],
          [
            100.2902708,
            5.3573979
          ],
          [
            100.290268,
            5.3573999
          ],
          [
            100.2902686,
            5.3574046
          ],
          [
            100.2902664,
            5.3573982
          ],
          [
            100.2902656,
            5.3574026
          ],
          [
            100.2902629,
            5.3574036
          ],
          [
            100.290262,
            5.3574068
          ],
          [
            100.290269,
            5.3574155
          ],
          [
            100.2902709,
            5.3574163
          ],
          [
            100.2902719,
            5.3574164
          ],
          [
            100.2902741,
            5.3574161
          ],
          [
            100.290286,
            5.35742
          ],
          [
            100.2902793,
            5.3574254
          ],
          [
            100.2902814,
            5.3574248
          ],
          [
            100.2902854,
            5.357429
          ],
          [
            100.2903124,
            5.357447
          ],
          [
            100.2902964,
            5.3573904
          ],
          [
            100.2902275,
            5.3573554
          ],
          [
            100.2902537,
            5.3573872
          ],
          [
            100.2902398,
            5.3573973
          ],
          [
            100.2902262,
            5.3573798
          ],
          [
            100.2902232,
            5.3573884
          ],
          [
            100.2902265,
            5.357377
          ],
          [
            100.2902392,
            5.3573831
          ],
          [
            100.2902562,
            5.3574028
          ],
          [
            100.2902555,
            5.357398
          ],
          [
            100.2902473,
            5.3573838
          ],
          [
            100.2902329,
            5.3573737
          ],
          [
            100.2902357,
            5.3573705
          ],
          [
            100.2902359,
            5.3573782
          ],
          [
            100.2902463,
            5.3573918
          ],
          [
            100.2902538,
            5.3573959
          ],
          [
            100.2902505,
            5.3573891
          ],
          [
            100.2902578,
            5.3573797
          ],
          [
            100.2902485,
            5.3573796
          ],
          [
            100.2902496,
            5.357375
          ],
          [
            100.2902524,
            5.3573738
          ],
          [
            100.2902565,
            5.3573805
          ],
          [
            100.2902562,
            5.3573802
          ],
          [
            100.2902587,
            5.3573824
          ],
          [
            100.2902555,
            5.3573904
          ],
          [
            100.2902593,
            5.3573918
          ],
          [
            100.2902577,
            5.3573979
          ],
          [
            100.2902764,
            5.3574166
          ],
          [
            100.2902582,
            5.357413
          ],
          [
            100.2902555,
            5.3573917
          ],
          [
            100.2902538,
            5.3573795
          ],
          [
            100.2902513,
            5.3573703
          ],
          [
            100.2902543,
            5.357366
          ],
          [
            100.2902569,
            5.3573637
          ],
          [
            100.2902591,
            5.357362
          ],
          [
            100.2902608,
            5.3573626
          ],
          [
            100.2902636,
            5.357363
          ],
          [
            100.2902624,
            5.3573623
          ],
          [
            100.2902619,
            5.3573622
          ],
          [
            100.290262,
            5.3573619
          ],
          [
            100.2902589,
            5.3573636
          ],
          [
            100.2902562,
            5.3573671
          ],
          [
            100.290255,
            5.3573736
          ],
          [
            100.2902501,
            5.3573748
          ],
          [
            100.2902513,
            5.3573843
          ],
          [
            100.290252,
            5.3573958
          ],
          [
            100.2902587,
            5.3574102
          ],
          [
            100.2902632,
            5.3574115
          ],
          [
            100.2902616,
            5.3574141
          ],
          [
            100.2902634,
            5.3574145
          ],
          [
            100.2902644,
            5.3574164
          ],
          [
            100.2902633,
            5.3574148
          ],
          [
            100.2902562,
            5.3574158
          ],
          [
            100.2902582,
            5.3574149
          ],
          [
            100.2902588,
            5.3574169
          ],
          [
            100.2902589,
            5.3574153
          ],
          [
            100.2902592,
            5.3574155
          ],
          [
            100.2902594,
            5.3574149
          ],
          [
            100.2902614,
            5.357412
          ],
          [
            100.2902603,
            5.3574068
          ],
          [
            100.2902591,
            5.357404
          ],
          [
            100.2902587,
            5.3574042
          ],
          [
            100.2902584,
            5.3574039
          ],
          [
            100.2902586,
            5.3574034
          ],
          [
            100.2902593,
            5.3574042
          ],
          [
            100.290259,
            5.3574023
          ],
          [
            100.2902594,
            5.3574017
          ],
          [
            100.2902594,
            5.3574021
          ],
          [
            100.2902599,
            5.3574024
          ],
          [
            100.290261,
            5.3574021
          ],
          [
            100.2902603,
            5.3574031
          ],
          [
            100.2902581,
            5.3574037
          ],
          [
            100.2902583,
            5.3574049
          ],
          [
            100.2902575,
            5.3574071
          ],
          [
            100.2902595,
            5.3574084
          ],
          [
            100.2902607,
            5.3574085
          ],
          [
            100.290262,
            5.3574085
          ],
          [
            100.2902599,
            5.3574086
          ],
          [
            100.2902528,
            5.357405
          ],
          [
            100.2902494,
            5.3574041
          ],
          [
            100.2902468,
            5.3574031
          ],
          [
            100.2902511,
            5.3574036
          ],
          [
            100.2902462,
            5.3573997
          ],
          [
            100.2902412,
            5.357418
          ],
          [
            100.290239,
            5.3574018
          ],
          [
            100.2902399,
            5.3573924
          ],
          [
            100.2902326,
            5.3574007
          ],
          [
            100.2902366,
            5.3574012
          ],
          [
            100.2902384,
            5.3574062
          ],
          [
            100.2902441,
            5.3574043
          ],
          [
            100.2902488,
            5.3573992
          ],
          [
            100.2902505,
            5.3573993
          ],
          [
            100.2902492,
            5.3574008
          ],
          [
            100.2902515,
            5.3574015
          ],
          [
            100.2902552,
            5.3574011
          ],
          [
            100.290258,
            5.3574007
          ],
          [
            100.2902592,
            5.357401
          ],
          [
            100.2902588,
            5.3573989
          ],
          [
            100.2902317,
            5.357383
          ],
          [
            100.2902148,
            5.3573731
          ],
          [
            100.2902088,
            5.3573682
          ],
          [
            100.2902023,
            5.3573676
          ],
          [
            100.2901987,
            5.3573704
          ],
          [
            100.2902007,
            5.3573718
          ],
          [
            100.2902012,
            5.3573708
          ],
          [
            100.2902047,
            5.3573679
          ],
          [
            100.2902056,
            5.357364
          ],
          [
            100.2902053,
            5.3573601
          ],
          [
            100.2902086,
            5.3573592
          ],
          [
            100.290213,
            5.3573582
          ],
          [
            100.290215,
            5.3573569
          ],
          [
            100.2902165,
            5.357356
          ],
          [
            100.2902181,
            5.3573565
          ],
          [
            100.2902176,
            5.3573557
          ],
          [
            100.290217,
            5.3573552
          ],
          [
            100.2902178,
            5.3573574
          ],
          [
            100.2902178,
            5.3573596
          ],
          [
            100.2902165,
            5.3573567
          ],
          [
            100.2902173,
            5.3573569
          ],
          [
            100.2902187,
            5.3573589
          ],
          [
            100.2902185,
            5.3573585
          ],
          [
            100.2902187,
            5.35736
          ],
          [
            100.2902186,
            5.3573599
          ],
          [
            100.2902187,
            5.3573599
          ],
          [
            100.2902186,
            5.3573599
          ],
          [
            100.2902185,
            5.3573598
          ],
          [
            100.2902186,
            5.3573601
          ],
          [
            100.2902189,
            5.3573602
          ],
          [
            100.2902192,
            5.3573601
          ],
          [
            100.2902194,
            5.3573599
          ],
          [
            100.2902196,
            5.3573599
          ],
          [
            100.2902194,
            5.3573598
          ],
          [
            100.2902197,
            5.3573602
          ],
          [
            100.2902197,
            5.35736
          ],
          [
            100.2902198,
            5.3573605
          ],
          [
            100.2902198,
            5.3573605
          ],
          [
            100.2902197,
            5.3573605
          ],
          [
            100.2902198,
            5.3573603
          ],
          [
            100.2902199,
            5.3573607
          ],
          [
            100.2902204,
            5.3573616
          ],
          [
            100.2902206,
            5.3573617
          ],
          [
            100.2902206,
            5.3573618
          ],
          [
            100.2902205,
            5.3573619
          ],
          [
            100.2902204,
            5.3573619
          ],
          [
            100.2902203,
            5.357362
          ],
          [
            100.2902205,
            5.357362
          ],
          [
            100.2902204,
            5.3573618
          ],
          [
            100.2902205,
            5.3573616
          ],
          [
            100.2902206,
            5.3573614
          ],
          [
            100.2902206,
            5.3573614
          ],
          [
            100.2902207,
            5.3573614
          ],
          [
            100.2902209,
            5.3573619
          ],
          [
            100.2902217,
            5.3573629
          ],
          [
            100.2901965,
            5.3573349
          ],
          [
            100.2901965,
            5.3573349
          ],
          [
            100.2901965,
            5.3573347
          ],
          [
            100.2901965,
            5.3573345
          ],
          [
            100.2901968,
            5.3573351
          ],
          [
            100.2901974,
            5.3573359
          ],
          [
            100.2901976,
            5.357336
          ],
          [
            100.2901986,
            5.3573375
          ],
          [
            100.2901988,
            5.3573376
          ],
          [
            100.2901989,
            5.3573377
          ],
          [
            100.2901989,
            5.3573378
          ],
          [
            100.290199,
            5.3573382
          ],
          [
            100.2901992,
            5.3573384
          ],
          [
            100.2901994,
            5.3573386
          ],
          [
            100.2901996,
            5.3573385
          ],
          [
            100.2902,
            5.3573386
          ],
          [
            100.2902001,
            5.3573386
          ],
          [
            100.2902001,
            5.3573386
          ],
          [
            100.2902003,
            5.3573388
          ],
          [
            100.2902009,
            5.3573391
          ],
          [
            100.2902014,
            5.3573395
          ],
          [
            100.2902023,
            5.3573402
          ],
          [
            100.2902029,
            5.3573411
          ],
          [
            100.2902031,
            5.357341
          ],
          [
            100.2902033,
            5.3573409
          ],
          [
            100.2902032,
            5.3573408
          ],
          [
            100.2902136,
            5.3573467
          ],
          [
            100.2902199,
            5.3573521
          ],
          [
            100.2902199,
            5.3573521
          ],
          [
            100.2902199,
            5.3573523
          ],
          [
            100.2902201,
            5.3573526
          ],
          [
            100.2902194,
            5.3573525
          ],
          [
            100.2902181,
            5.357347
          ],
          [
            100.2902181,
            5.3573473
          ],
          [
            100.2902162,
            5.3573535
          ],
          [
            100.2902161,
            5.3573542
          ],
          [
            100.2902161,
            5.3573543
          ],
          [
            100.2902161,
            5.3573543
          ],
          [
            100.2902162,
            5.3573544
          ],
          [
            100.290216,
            5.3573542
          ],
          [
            100.2902158,
            5.3573542
          ],
          [
            100.2902158,
            5.3573542
          ],
          [
            100.290216,
            5.3573542
          ],
          [
            100.2902159,
            5.3573542
          ],
          [
            100.2902162,
            5.3573536
          ],
          [
            100.290216,
            5.3573529
          ],
          [
            100.2902166,
            5.3573534
          ],
          [
            100.290215,
            5.3573546
          ],
          [
            100.290215,
            5.3573541
          ],
          [
            100.290216,
            5.3573538
          ],
          [
            100.2902161,
            5.3573541
          ],
          [
            100.2902159,
            5.3573537
          ],
          [
            100.290217,
            5.3573533
          ],
          [
            100.2902183,
            5.3573539
          ],
          [
            100.2902184,
            5.3573537
          ],
          [
            100.2902185,
            5.357354
          ],
          [
            100.2902182,
            5.3573555
          ],
          [
            100.2902182,
            5.3573562
          ],
          [
            100.2902184,
            5.3573565
          ],
          [
            100.2902183,
            5.3573568
          ],
          [
            100.2902186,
            5.3573575
          ],
          [
            100.2902186,
            5.3573583
          ],
          [
            100.2902185,
            5.3573586
          ],
          [
            100.2902168,
            5.3573584
          ],
          [
            100.2902152,
            5.3573572
          ],
          [
            100.2902136,
            5.3573574
          ],
          [
            100.2902135,
            5.3573578
          ],
          [
            100.2902137,
            5.3573588
          ],
          [
            100.2902138,
            5.3573588
          ],
          [
            100.2902139,
            5.357358
          ],
          [
            100.2902151,
            5.3573576
          ],
          [
            100.2902151,
            5.3573574
          ],
          [
            100.2902156,
            5.3573568
          ],
          [
            100.2902158,
            5.3573553
          ],
          [
            100.2902138,
            5.3573545
          ],
          [
            100.2902152,
            5.3573548
          ],
          [
            100.2902168,
            5.3573548
          ],
          [
            100.2902175,
            5.3573531
          ],
          [
            100.2902157,
            5.3573481
          ],
          [
            100.2902214,
            5.3573474
          ],
          [
            100.2922325,
            5.3585303
          ],
          [
            100.2922698,
            5.3585409
          ],
          [
            100.2902371,
            5.3573584
          ],
          [
            100.2902345,
            5.3573589
          ],
          [
            100.2902365,
            5.3573559
          ],
          [
            100.2902529,
            5.3573587
          ],
          [
            100.2902726,
            5.3573547
          ],
          [
            100.2903176,
            5.3573497
          ],
          [
            100.2903541,
            5.3573433
          ],
          [
            100.2903693,
            5.3573372
          ],
          [
            100.2904141,
            5.3573124
          ],
          [
            100.2904476,
            5.3572921
          ],
          [
            100.2904832,
            5.3572741
          ],
          [
            100.2905156,
            5.3572584
          ],
          [
            100.2905445,
            5.3572357
          ],
          [
            100.2905701,
            5.3571905
          ],
          [
            100.2905921,
            5.3571637
          ],
          [
            100.2905853,
            5.3571751
          ],
          [
            100.2905836,
            5.3571816
          ],
          [
            100.290581,
            5.3571822
          ],
          [
            100.2905809,
            5.3571858
          ],
          [
            100.2905798,
            5.3571901
          ],
          [
            100.2905797,
            5.3571893
          ],
          [
            100.2905843,
            5.3571879
          ],
          [
            100.2905879,
            5.3571877
          ],
          [
            100.2905833,
            5.3571858
          ],
          [
            100.2905844,
            5.3571901
          ],
          [
            100.290613,
            5.3571776
          ],
          [
            100.2906506,
            5.3571459
          ],
          [
            100.2906801,
            5.3571057
          ],
          [
            100.2907024,
            5.3570644
          ],
          [
            100.2907239,
            5.3570323
          ],
          [
            100.2907303,
            5.3569972
          ],
          [
            100.2907291,
            5.3569763
          ],
          [
            100.2907181,
            5.3569548
          ],
          [
            100.2907278,
            5.3569194
          ],
          [
            100.2907496,
            5.3568924
          ],
          [
            100.2907549,
            5.3568864
          ],
          [
            100.2907634,
            5.3568891
          ],
          [
            100.2907649,
            5.3568906
          ],
          [
            100.2907757,
            5.3568806
          ],
          [
            100.2907788,
            5.3568793
          ],
          [
            100.2907808,
            5.3568782
          ],
          [
            100.2907788,
            5.356886
          ],
          [
            100.2907816,
            5.3568925
          ],
          [
            100.2907743,
            5.3568982
          ],
          [
            100.2907753,
            5.3568964
          ],
          [
            100.2907761,
            5.3568925
          ],
          [
            100.2907794,
            5.356899
          ],
          [
            100.2907714,
            5.3569001
          ],
          [
            100.2907725,
            5.356904
          ],
          [
            100.2907742,
            5.3569051
          ],
          [
            100.2907902,
            5.356884
          ],
          [
            100.2908415,
            5.3568457
          ],
          [
            100.2908589,
            5.3568065
          ],
          [
            100.2908735,
            5.3567822
          ],
          [
            100.2908801,
            5.3567515
          ],
          [
            100.2908872,
            5.3567212
          ],
          [
            100.2909065,
            5.3566914
          ],
          [
            100.2909172,
            5.356686
          ],
          [
            100.2909441,
            5.3566788
          ],
          [
            100.2909838,
            5.3566967
          ],
          [
            100.2909961,
            5.3566979
          ],
          [
            100.2909938,
            5.356701
          ],
          [
            100.291022,
            5.3567198
          ],
          [
            100.2910633,
            5.3567286
          ],
          [
            100.2910715,
            5.3567008
          ],
          [
            100.2910587,
            5.3566773
          ],
          [
            100.2910625,
            5.3566848
          ],
          [
            100.2910591,
            5.356693
          ],
          [
            100.291059,
            5.3566775
          ],
          [
            100.291071,
            5.3566497
          ],
          [
            100.2911006,
            5.3566156
          ],
          [
            100.2911187,
            5.3565838
          ],
          [
            100.2911237,
            5.3565414
          ],
          [
            100.2911138,
            5.3564984
          ],
          [
            100.2911147,
            5.3564856
          ],
          [
            100.2911426,
            5.3564758
          ],
          [
            100.2911774,
            5.3564532
          ],
          [
            100.2912125,
            5.3564476
          ],
          [
            100.291254,
            5.3564569
          ],
          [
            100.2912856,
            5.3564582
          ],
          [
            100.2913209,
            5.3564672
          ],
          [
            100.2913341,
            5.3564855
          ],
          [
            100.2913314,
            5.3564931
          ],
          [
            100.2913412,
            5.3564946
          ],
          [
            100.291376,
            5.3564902
          ],
          [
            100.2914244,
            5.3564972
          ],
          [
            100.2914475,
            5.3564995
          ],
          [
            100.291488,
            5.3564976
          ],
          [
            100.2915295,
            5.3565035
          ],
          [
            100.2915426,
            5.3565122
          ],
          [
            100.2915492,
            5.3565058
          ],
          [
            100.2915759,
            5.3565077
          ],
          [
            100.2916136,
            5.3565145
          ],
          [
            100.2916506,
            5.3565129
          ],
          [
            100.2916824,
            5.3565112
          ],
          [
            100.2917257,
            5.3564795
          ],
          [
            100.2917412,
            5.3564665
          ],
          [
            100.291739,
            5.3564666
          ],
          [
            100.2917659,
            5.3564582
          ],
          [
            100.2917342,
            5.3564647
          ],
          [
            100.2917147,
            5.3564776
          ],
          [
            100.291742,
            5.3564834
          ],
          [
            100.2917833,
            5.356504
          ],
          [
            100.2918214,
            5.3564977
          ],
          [
            100.291844,
            5.3564889
          ],
          [
            100.2918839,
            5.3564719
          ],
          [
            100.2919093,
            5.3564638
          ],
          [
            100.2919596,
            5.3564592
          ],
          [
            100.2919473,
            5.3564596
          ],
          [
            100.291977,
            5.3564618
          ],
          [
            100.2920148,
            5.3564626
          ],
          [
            100.2920257,
            5.35645
          ],
          [
            100.2920285,
            5.3564483
          ],
          [
            100.2920417,
            5.3564521
          ],
          [
            100.2920856,
            5.3564605
          ],
          [
            100.2921198,
            5.3564883
          ],
          [
            100.2921469,
            5.3565066
          ],
          [
            100.2921665,
            5.3565232
          ],
          [
            100.2921712,
            5.3564781
          ],
          [
            100.2921952,
            5.3564864
          ],
          [
            100.2922322,
            5.3565168
          ],
          [
            100.2922458,
            5.3565207
          ],
          [
            100.2922581,
            5.3565208
          ],
          [
            100.2922846,
            5.3565144
          ],
          [
            100.2922922,
            5.3565233
          ],
          [
            100.2922993,
            5.3565155
          ],
          [
            100.2923114,
            5.3565206
          ],
          [
            100.292315,
            5.3565102
          ],
          [
            100.2923227,
            5.3565007
          ],
          [
            100.2923372,
            5.3564944
          ],
          [
            100.292345,
            5.3564964
          ],
          [
            100.2923542,
            5.3564958
          ],
          [
            100.2923689,
            5.3564864
          ],
          [
            100.2923702,
            5.3564909
          ],
          [
            100.2923776,
            5.3564758
          ],
          [
            100.2924171,
            5.356463
          ],
          [
            100.2924631,
            5.3564427
          ],
          [
            100.2924811,
            5.3564224
          ],
          [
            100.2924948,
            5.3564221
          ],
          [
            100.2925433,
            5.3564275
          ],
          [
            100.2925983,
            5.3564278
          ],
          [
            100.2926292,
            5.3564118
          ],
          [
            100.2926804,
            5.3564297
          ],
          [
            100.292718,
            5.3564434
          ],
          [
            100.2927611,
            5.356443
          ],
          [
            100.2927894,
            5.3564438
          ],
          [
            100.2928126,
            5.3564414
          ],
          [
            100.2927969,
            5.3564286
          ],
          [
            100.2928239,
            5.3564192
          ],
          [
            100.2928716,
            5.3564189
          ],
          [
            100.2929085,
            5.3564267
          ],
          [
            100.2929386,
            5.3564326
          ],
          [
            100.2929712,
            5.3564388
          ],
          [
            100.293008,
            5.3564413
          ],
          [
            100.2930365,
            5.3564409
          ],
          [
            100.2930704,
            5.3564426
          ],
          [
            100.2930937,
            5.3564479
          ],
          [
            100.2931162,
            5.3564525
          ],
          [
            100.2931183,
            5.3564548
          ],
          [
            100.2931132,
            5.3564482
          ],
          [
            100.2931278,
            5.3564422
          ],
          [
            100.2931582,
            5.356435
          ],
          [
            100.2931623,
            5.3564324
          ],
          [
            100.2931873,
            5.3564316
          ],
          [
            100.2932013,
            5.3564273
          ],
          [
            100.2932296,
            5.3564231
          ],
          [
            100.2932743,
            5.3564125
          ],
          [
            100.2932834,
            5.35639
          ],
          [
            100.2933205,
            5.3563919
          ],
          [
            100.293348,
            5.3563936
          ],
          [
            100.2933212,
            5.3564068
          ],
          [
            100.2933014,
            5.3564089
          ],
          [
            100.2932819,
            5.3564054
          ],
          [
            100.2932719,
            5.3564035
          ],
          [
            100.2932649,
            5.356394
          ],
          [
            100.2932537,
            5.3563856
          ],
          [
            100.2933459,
            5.3563579
          ],
          [
            100.2934187,
            5.3563343
          ],
          [
            100.2934478,
            5.3563168
          ],
          [
            100.2934515,
            5.3562749
          ],
          [
            100.2934592,
            5.3562435
          ],
          [
            100.2934718,
            5.3562055
          ],
          [
            100.2934753,
            5.3561761
          ],
          [
            100.293474,
            5.3561721
          ],
          [
            100.2934756,
            5.3561797
          ],
          [
            100.2934812,
            5.3561848
          ],
          [
            100.2934798,
            5.3561889
          ],
          [
            100.2934813,
            5.3561897
          ],
          [
            100.2934821,
            5.3561933
          ],
          [
            100.2934789,
            5.3561953
          ],
          [
            100.2934814,
            5.3562011
          ],
          [
            100.2934795,
            5.3561974
          ],
          [
            100.2934764,
            5.356198
          ],
          [
            100.2934757,
            5.3561998
          ],
          [
            100.2934798,
            5.3561972
          ],
          [
            100.293507,
            5.3561799
          ],
          [
            100.2935148,
            5.3561352
          ],
          [
            100.2935308,
            5.35609
          ],
          [
            100.2935526,
            5.3560562
          ],
          [
            100.293571,
            5.3560398
          ],
          [
            100.2935997,
            5.3560256
          ],
          [
            100.2936295,
            5.3560257
          ],
          [
            100.2936387,
            5.3560292
          ],
          [
            100.2936389,
            5.3560298
          ],
          [
            100.2936388,
            5.3560288
          ],
          [
            100.2936397,
            5.3560314
          ],
          [
            100.2936399,
            5.3560319
          ],
          [
            100.2936403,
            5.3560319
          ],
          [
            100.2936404,
            5.3560314
          ],
          [
            100.2936412,
            5.3560334
          ],
          [
            100.2936395,
            5.3560333
          ],
          [
            100.2936388,
            5.3560346
          ],
          [
            100.2936389,
            5.3560379
          ],
          [
            100.2936377,
            5.3560395
          ],
          [
            100.2936385,
            5.3560372
          ],
          [
            100.2936383,
            5.3560371
          ],
          [
            100.2936366,
            5.3560358
          ],
          [
            100.2936379,
            5.3560355
          ],
          [
            100.2936381,
            5.3560361
          ],
          [
            100.2936403,
            5.3560454
          ],
          [
            100.2936406,
            5.3560451
          ],
          [
            100.2936415,
            5.3560448
          ],
          [
            100.2936421,
            5.3560452
          ],
          [
            100.293643,
            5.3560458
          ],
          [
            100.2936438,
            5.3560459
          ],
          [
            100.2936451,
            5.3560469
          ],
          [
            100.293646,
            5.3560469
          ],
          [
            100.2936466,
            5.3560516
          ],
          [
            100.2936461,
            5.3560521
          ],
          [
            100.2936352,
            5.3560653
          ],
          [
            100.2936159,
            5.3561133
          ],
          [
            100.2936387,
            5.3561384
          ],
          [
            100.2936495,
            5.3561392
          ],
          [
            100.2936494,
            5.3561428
          ],
          [
            100.2936539,
            5.3561504
          ],
          [
            100.2936554,
            5.3561466
          ],
          [
            100.2936574,
            5.3561447
          ],
          [
            100.2936574,
            5.3561402
          ],
          [
            100.2936546,
            5.3561373
          ],
          [
            100.2936538,
            5.3561353
          ],
          [
            100.2936634,
            5.3561364
          ],
          [
            100.2937088,
            5.3561428
          ],
          [
            100.2937486,
            5.3561411
          ],
          [
            100.2937765,
            5.3561182
          ],
          [
            100.2937966,
            5.3560886
          ],
          [
            100.2937871,
            5.3560695
          ],
          [
            100.2937793,
            5.3560607
          ],
          [
            100.2937752,
            5.3560505
          ],
          [
            100.2937715,
            5.356041
          ],
          [
            100.2937562,
            5.3560188
          ],
          [
            100.2937548,
            5.3560156
          ],
          [
            100.2937569,
            5.3560013
          ],
          [
            100.2937567,
            5.3559884
          ],
          [
            100.2937538,
            5.3559754
          ],
          [
            100.2937506,
            5.3559657
          ],
          [
            100.2937526,
            5.3559559
          ],
          [
            100.2937281,
            5.3559544
          ],
          [
            100.2937242,
            5.3559632
          ],
          [
            100.2937263,
            5.3559678
          ],
          [
            100.2937329,
            5.3559781
          ],
          [
            100.2937434,
            5.35599
          ],
          [
            100.2937662,
            5.3560197
          ],
          [
            100.2937506,
            5.3560395
          ],
          [
            100.2937408,
            5.3560477
          ],
          [
            100.2937395,
            5.3560467
          ],
          [
            100.2937345,
            5.356043
          ],
          [
            100.2937078,
            5.3560422
          ],
          [
            100.2936785,
            5.3560385
          ],
          [
            100.2936563,
            5.3560176
          ],
          [
            100.293667,
            5.3560102
          ],
          [
            100.293681,
            5.3560085
          ],
          [
            100.2936824,
            5.3560109
          ],
          [
            100.2936818,
            5.3560134
          ],
          [
            100.2936825,
            5.3560135
          ],
          [
            100.2936833,
            5.3560133
          ],
          [
            100.2936842,
            5.3560138
          ],
          [
            100.2936852,
            5.3560139
          ],
          [
            100.2937107,
            5.3560152
          ],
          [
            100.2942993,
            5.3559028
          ],
          [
            100.2948271,
            5.3558598
          ],
          [
            100.2950498,
            5.3558077
          ],
          [
            100.2950579,
            5.3555053
          ],
          [
            100.2950391,
            5.3552998
          ],
          [
            100.2952665,
            5.3551424
          ],
          [
            100.2960319,
            5.3551083
          ],
          [
            100.2964935,
            5.3550872
          ],
          [
            100.297179,
            5.3550401
          ],
          [
            100.2979939,
            5.3550134
          ],
          [
            100.2983893,
            5.3550678
          ],
          [
            100.2988885,
            5.3551256
          ],
          [
            100.2996297,
            5.3552228
          ],
          [
            100.3001071,
            5.3553634
          ],
          [
            100.3004203,
            5.3559499
          ],
          [
            100.3007389,
            5.3565745
          ],
          [
            100.3010295,
            5.3571683
          ],
          [
            100.3012489,
            5.3576181
          ],
          [
            100.3014496,
            5.357632
          ],
          [
            100.3015063,
            5.3572981
          ],
          [
            100.3014253,
            5.3572311
          ],
          [
            100.3014283,
            5.3572365
          ],
          [
            100.3014274,
            5.3572348
          ],
          [
            100.3014202,
            5.357219
          ],
          [
            100.3014402,
            5.357204
          ],
          [
            100.3014359,
            5.3572035
          ],
          [
            100.3014502,
            5.3571874
          ],
          [
            100.3014912,
            5.3571693
          ],
          [
            100.3015215,
            5.3571829
          ],
          [
            100.3015537,
            5.3572255
          ],
          [
            100.3015853,
            5.3572053
          ],
          [
            100.3016461,
            5.3571762
          ],
          [
            100.3016973,
            5.3571779
          ],
          [
            100.3017311,
            5.3571673
          ],
          [
            100.3017709,
            5.3571695
          ],
          [
            100.3017669,
            5.3571658
          ],
          [
            100.3017648,
            5.3571628
          ],
          [
            100.3017571,
            5.3571401
          ],
          [
            100.3017385,
            5.3571302
          ],
          [
            100.30173,
            5.3571398
          ],
          [
            100.301728,
            5.357143
          ],
          [
            100.3017432,
            5.3571616
          ],
          [
            100.3017451,
            5.3571606
          ],
          [
            100.3017456,
            5.3571578
          ],
          [
            100.3017451,
            5.3571615
          ],
          [
            100.3017449,
            5.3571605
          ],
          [
            100.301747,
            5.3571583
          ],
          [
            100.3017506,
            5.3571551
          ],
          [
            100.3017507,
            5.357152
          ],
          [
            100.3017509,
            5.357155
          ],
          [
            100.3017469,
            5.3571529
          ],
          [
            100.301748,
            5.3571543
          ],
          [
            100.3017499,
            5.3571467
          ],
          [
            100.3017482,
            5.3571458
          ],
          [
            100.3017465,
            5.3571485
          ],
          [
            100.301748,
            5.3571465
          ],
          [
            100.3017505,
            5.3571454
          ],
          [
            100.3017519,
            5.3571456
          ],
          [
            100.3017519,
            5.357147
          ],
          [
            100.3017521,
            5.3571511
          ],
          [
            100.301752,
            5.3571545
          ],
          [
            100.30175,
            5.357157
          ],
          [
            100.3017457,
            5.3571624
          ],
          [
            100.3017464,
            5.357162
          ],
          [
            100.3017455,
            5.3571635
          ],
          [
            100.301746,
            5.3571612
          ],
          [
            100.3017473,
            5.357158
          ],
          [
            100.3017466,
            5.3571552
          ],
          [
            100.3017466,
            5.357152
          ],
          [
            100.3017449,
            5.3571499
          ],
          [
            100.3017455,
            5.3571475
          ],
          [
            100.301746,
            5.3571455
          ],
          [
            100.3017428,
            5.3571463
          ],
          [
            100.3017401,
            5.3571516
          ],
          [
            100.3017413,
            5.3571529
          ],
          [
            100.3017401,
            5.3571564
          ],
          [
            100.3017429,
            5.3571589
          ],
          [
            100.3017451,
            5.3571562
          ],
          [
            100.3017462,
            5.3571568
          ],
          [
            100.3017475,
            5.3571574
          ],
          [
            100.3017517,
            5.3571513
          ],
          [
            100.3017557,
            5.3571442
          ],
          [
            100.301755,
            5.3571398
          ],
          [
            100.3017587,
            5.3571371
          ],
          [
            100.3017528,
            5.3571454
          ],
          [
            100.3017619,
            5.3571332
          ],
          [
            100.3017632,
            5.3571336
          ],
          [
            100.3017584,
            5.3571456
          ],
          [
            100.3017591,
            5.3571444
          ],
          [
            100.3017569,
            5.3571453
          ],
          [
            100.3017514,
            5.3571524
          ],
          [
            100.3017426,
            5.3571646
          ],
          [
            100.3017383,
            5.3571795
          ],
          [
            100.3017367,
            5.3571802
          ],
          [
            100.3017353,
            5.3571816
          ],
          [
            100.3017364,
            5.3571774
          ],
          [
            100.3017377,
            5.3571789
          ],
          [
            100.3017423,
            5.3571781
          ],
          [
            100.3017451,
            5.3571769
          ],
          [
            100.3017452,
            5.3571757
          ],
          [
            100.3017469,
            5.3571711
          ],
          [
            100.3017485,
            5.3571621
          ],
          [
            100.3017476,
            5.357161
          ],
          [
            100.3017464,
            5.3571621
          ],
          [
            100.3017433,
            5.3571617
          ],
          [
            100.3017422,
            5.3571638
          ],
          [
            100.3017421,
            5.3571539
          ],
          [
            100.3017398,
            5.3571507
          ],
          [
            100.3017456,
            5.3571481
          ],
          [
            100.3017545,
            5.3571491
          ],
          [
            100.3017559,
            5.3571523
          ],
          [
            100.3017539,
            5.3571532
          ],
          [
            100.3017527,
            5.3571543
          ],
          [
            100.3017508,
            5.3571533
          ],
          [
            100.3017511,
            5.3571606
          ],
          [
            100.3017509,
            5.3571767
          ],
          [
            100.3017512,
            5.3571761
          ],
          [
            100.3017509,
            5.3571718
          ],
          [
            100.3017523,
            5.3571683
          ],
          [
            100.3017511,
            5.3571644
          ],
          [
            100.3017451,
            5.3571651
          ],
          [
            100.3017452,
            5.3571654
          ],
          [
            100.3017481,
            5.357155
          ],
          [
            100.3017485,
            5.3571505
          ],
          [
            100.3017483,
            5.3571487
          ],
          [
            100.3017472,
            5.3571452
          ],
          [
            100.3017451,
            5.3571413
          ],
          [
            100.3017498,
            5.3571397
          ],
          [
            100.3017483,
            5.3571421
          ],
          [
            100.3017509,
            5.3571458
          ],
          [
            100.3017521,
            5.357146
          ],
          [
            100.3017534,
            5.3571467
          ],
          [
            100.3017542,
            5.3571468
          ],
          [
            100.3017535,
            5.3571476
          ],
          [
            100.3017526,
            5.3571522
          ],
          [
            100.3017484,
            5.3571583
          ],
          [
            100.3017489,
            5.3571569
          ],
          [
            100.3017499,
            5.3571545
          ],
          [
            100.3017507,
            5.3571548
          ],
          [
            100.3017531,
            5.3571527
          ],
          [
            100.3017512,
            5.357164
          ],
          [
            100.3017577,
            5.3571564
          ],
          [
            100.3017559,
            5.3571598
          ],
          [
            100.3017507,
            5.3571453
          ],
          [
            100.3017451,
            5.3571268
          ],
          [
            100.3017442,
            5.357113
          ],
          [
            100.301748,
            5.3571168
          ],
          [
            100.3017521,
            5.3571226
          ],
          [
            100.301751,
            5.357117
          ],
          [
            100.3017518,
            5.3571159
          ],
          [
            100.3017557,
            5.3571092
          ],
          [
            100.3017588,
            5.357112
          ],
          [
            100.3017675,
            5.357115
          ],
          [
            100.3017693,
            5.3571102
          ],
          [
            100.3017736,
            5.3571002
          ],
          [
            100.3017741,
            5.3571004
          ],
          [
            100.3017765,
            5.3571157
          ],
          [
            100.3017748,
            5.3571333
          ],
          [
            100.3017665,
            5.3571644
          ],
          [
            100.3017653,
            5.3571582
          ],
          [
            100.301761,
            5.3571692
          ],
          [
            100.3017662,
            5.3571493
          ],
          [
            100.3017677,
            5.3571415
          ],
          [
            100.3017695,
            5.3571345
          ],
          [
            100.3017742,
            5.3571357
          ],
          [
            100.3017751,
            5.3571362
          ],
          [
            100.3017745,
            5.3571469
          ],
          [
            100.3017721,
            5.3571616
          ],
          [
            100.3017673,
            5.3571712
          ],
          [
            100.3017589,
            5.3571914
          ],
          [
            100.3017552,
            5.3572025
          ],
          [
            100.3017534,
            5.3572069
          ],
          [
            100.301749,
            5.3572062
          ],
          [
            100.3017494,
            5.3572071
          ],
          [
            100.3017492,
            5.357208
          ],
          [
            100.3017492,
            5.3571971
          ],
          [
            100.3017459,
            5.3571948
          ],
          [
            100.3017416,
            5.357196
          ],
          [
            100.3017375,
            5.3571961
          ],
          [
            100.3017421,
            5.3571819
          ],
          [
            100.3017492,
            5.3571777
          ],
          [
            100.30175,
            5.3571705
          ],
          [
            100.3017501,
            5.3571675
          ],
          [
            100.3017501,
            5.3571683
          ],
          [
            100.301749,
            5.3571649
          ],
          [
            100.3017496,
            5.3571567
          ],
          [
            100.3017506,
            5.3571535
          ],
          [
            100.3017475,
            5.3571416
          ],
          [
            100.3017474,
            5.3571419
          ],
          [
            100.3017482,
            5.3571483
          ],
          [
            100.3017407,
            5.3571485
          ],
          [
            100.3017409,
            5.3571445
          ],
          [
            100.3017405,
            5.3571536
          ],
          [
            100.3017401,
            5.3571721
          ],
          [
            100.301742,
            5.3571695
          ],
          [
            100.3017431,
            5.3571754
          ],
          [
            100.3017439,
            5.357176
          ],
          [
            100.3017441,
            5.3571805
          ],
          [
            100.3017429,
            5.3571897
          ],
          [
            100.3017427,
            5.3571874
          ],
          [
            100.3017334,
            5.3572053
          ],
          [
            100.3017319,
            5.3572207
          ],
          [
            100.3017375,
            5.3572125
          ],
          [
            100.3017425,
            5.3571878
          ],
          [
            100.3017446,
            5.3571795
          ],
          [
            100.3017448,
            5.3571744
          ],
          [
            100.3017394,
            5.3571625
          ],
          [
            100.3017378,
            5.3571679
          ],
          [
            100.301739,
            5.3571703
          ],
          [
            100.3017404,
            5.3571694
          ],
          [
            100.3017381,
            5.3571656
          ],
          [
            100.3017403,
            5.3571657
          ],
          [
            100.301746,
            5.3571573
          ],
          [
            100.3017503,
            5.3571503
          ],
          [
            100.3017498,
            5.3571472
          ],
          [
            100.3017476,
            5.3571733
          ],
          [
            100.3017509,
            5.357184
          ],
          [
            100.3017526,
            5.3571726
          ],
          [
            100.3017502,
            5.3571819
          ],
          [
            100.301749,
            5.3571779
          ],
          [
            100.3017471,
            5.3571706
          ],
          [
            100.3017497,
            5.357159
          ],
          [
            100.3017453,
            5.3571819
          ],
          [
            100.3017455,
            5.3571806
          ],
          [
            100.3017462,
            5.3571955
          ],
          [
            100.3017464,
            5.3571819
          ],
          [
            100.3017456,
            5.3571792
          ],
          [
            100.3017427,
            5.3571947
          ],
          [
            100.3017426,
            5.3571881
          ],
          [
            100.3017421,
            5.357184
          ],
          [
            100.3017426,
            5.3571806
          ],
          [
            100.3017421,
            5.3571828
          ],
          [
            100.3017422,
            5.3571811
          ],
          [
            100.3017425,
            5.3571806
          ],
          [
            100.3017419,
            5.3571804
          ],
          [
            100.3017423,
            5.357181
          ],
          [
            100.3017426,
            5.3571838
          ],
          [
            100.3017426,
            5.3571818
          ],
          [
            100.3017421,
            5.3571789
          ],
          [
            100.3017417,
            5.3571774
          ],
          [
            100.3017431,
            5.3571729
          ],
          [
            100.3017444,
            5.3571717
          ],
          [
            100.301746,
            5.3571718
          ],
          [
            100.3017491,
            5.3571739
          ],
          [
            100.3017507,
            5.3571711
          ],
          [
            100.3017524,
            5.3571676
          ],
          [
            100.3017551,
            5.3571636
          ],
          [
            100.3017547,
            5.3571597
          ],
          [
            100.3017555,
            5.3571454
          ],
          [
            100.3017569,
            5.3571326
          ],
          [
            100.3017554,
            5.3571338
          ],
          [
            100.3017596,
            5.3571291
          ],
          [
            100.3017596,
            5.3571279
          ],
          [
            100.301757,
            5.3571364
          ],
          [
            100.3017506,
            5.3571373
          ],
          [
            100.3017466,
            5.3571605
          ],
          [
            100.3017487,
            5.3571618
          ],
          [
            100.3017474,
            5.3571623
          ],
          [
            100.3017455,
            5.3571625
          ],
          [
            100.3017461,
            5.3571603
          ],
          [
            100.3017478,
            5.3571593
          ],
          [
            100.3017496,
            5.3571596
          ],
          [
            100.3017497,
            5.3571579
          ],
          [
            100.3017522,
            5.3571535
          ],
          [
            100.3017539,
            5.3571485
          ],
          [
            100.3017774,
            5.3571499
          ],
          [
            100.3018034,
            5.3571547
          ],
          [
            100.3018413,
            5.357178
          ],
          [
            100.3018766,
            5.357197
          ],
          [
            100.3019141,
            5.3572131
          ],
          [
            100.3019561,
            5.3572189
          ],
          [
            100.3019922,
            5.3572302
          ],
          [
            100.3020195,
            5.3572465
          ],
          [
            100.3020371,
            5.3572686
          ],
          [
            100.3020653,
            5.3572926
          ],
          [
            100.3020959,
            5.3573117
          ],
          [
            100.3021215,
            5.3573349
          ],
          [
            100.3021568,
            5.357354
          ],
          [
            100.3021854,
            5.3573784
          ],
          [
            100.3022111,
            5.3574145
          ],
          [
            100.3022409,
            5.3574252
          ],
          [
            100.3022733,
            5.3574287
          ],
          [
            100.3023088,
            5.357413
          ],
          [
            100.3023523,
            5.3573768
          ],
          [
            100.3023813,
            5.3573382
          ],
          [
            100.3023978,
            5.3573017
          ],
          [
            100.3024306,
            5.3572824
          ],
          [
            100.3024588,
            5.3572833
          ],
          [
            100.3024898,
            5.3572953
          ],
          [
            100.302523,
            5.3573099
          ],
          [
            100.3025515,
            5.3573218
          ],
          [
            100.3025859,
            5.3573339
          ],
          [
            100.3026214,
            5.3573316
          ],
          [
            100.3026573,
            5.3573262
          ],
          [
            100.3026983,
            5.3572939
          ],
          [
            100.3027113,
            5.3572622
          ],
          [
            100.302723,
            5.3572107
          ],
          [
            100.3027328,
            5.357169
          ],
          [
            100.3027289,
            5.357126
          ],
          [
            100.3027328,
            5.3570943
          ],
          [
            100.3027417,
            5.3570846
          ],
          [
            100.3027543,
            5.3570868
          ],
          [
            100.3027943,
            5.3570568
          ],
          [
            100.3028174,
            5.3570341
          ],
          [
            100.3028494,
            5.3570389
          ],
          [
            100.302871,
            5.3570186
          ],
          [
            100.3028773,
            5.3570254
          ],
          [
            100.3028764,
            5.3570172
          ],
          [
            100.302876,
            5.3570138
          ],
          [
            100.3028773,
            5.357013
          ],
          [
            100.3028867,
            5.357005
          ],
          [
            100.3029016,
            5.3570096
          ],
          [
            100.3029379,
            5.3570255
          ],
          [
            100.3029796,
            5.3570554
          ],
          [
            100.303008,
            5.3570681
          ],
          [
            100.3030319,
            5.3570605
          ],
          [
            100.303032,
            5.3570586
          ],
          [
            100.3030385,
            5.35703
          ],
          [
            100.3030379,
            5.3570115
          ],
          [
            100.3030401,
            5.3569641
          ],
          [
            100.3030572,
            5.3569617
          ],
          [
            100.3030626,
            5.3569573
          ],
          [
            100.303067,
            5.3569402
          ],
          [
            100.3030724,
            5.3569339
          ],
          [
            100.3030807,
            5.3569342
          ],
          [
            100.303091,
            5.356928
          ],
          [
            100.3030974,
            5.3569184
          ],
          [
            100.3030989,
            5.3569143
          ],
          [
            100.3031065,
            5.3568951
          ],
          [
            100.3031228,
            5.3568975
          ],
          [
            100.3031232,
            5.3569011
          ],
          [
            100.3031168,
            5.3568941
          ],
          [
            100.3031114,
            5.3568929
          ],
          [
            100.3031158,
            5.3568889
          ],
          [
            100.3031194,
            5.3568919
          ],
          [
            100.3031195,
            5.3568974
          ],
          [
            100.3031181,
            5.356885
          ],
          [
            100.3031237,
            5.35688
          ],
          [
            100.3031173,
            5.3568775
          ],
          [
            100.3031308,
            5.356871
          ],
          [
            100.3031319,
            5.3568701
          ],
          [
            100.3031275,
            5.3568692
          ],
          [
            100.3031225,
            5.3568625
          ],
          [
            100.3031434,
            5.3568571
          ],
          [
            100.3031312,
            5.3568554
          ],
          [
            100.3031289,
            5.356865
          ],
          [
            100.3031215,
            5.3568673
          ],
          [
            100.303127,
            5.3568731
          ],
          [
            100.3031161,
            5.3568777
          ],
          [
            100.3030939,
            5.3568902
          ],
          [
            100.3030915,
            5.3568943
          ],
          [
            100.3030711,
            5.3568999
          ],
          [
            100.3030565,
            5.3568954
          ],
          [
            100.303057,
            5.3569031
          ],
          [
            100.303054,
            5.3568971
          ],
          [
            100.3030579,
            5.356897
          ],
          [
            100.3030446,
            5.3568892
          ],
          [
            100.3030564,
            5.3568842
          ],
          [
            100.3030504,
            5.3568817
          ],
          [
            100.3030436,
            5.3568742
          ],
          [
            100.3030554,
            5.3568716
          ],
          [
            100.3030508,
            5.3568717
          ],
          [
            100.3030552,
            5.3568621
          ],
          [
            100.3030531,
            5.3568574
          ],
          [
            100.303048,
            5.3568559
          ],
          [
            100.3030222,
            5.3568658
          ],
          [
            100.3030271,
            5.3568739
          ],
          [
            100.30303,
            5.3568826
          ],
          [
            100.3030331,
            5.3568841
          ],
          [
            100.3030514,
            5.3568804
          ],
          [
            100.3030506,
            5.3568768
          ],
          [
            100.3030621,
            5.3568679
          ],
          [
            100.3030711,
            5.3568786
          ],
          [
            100.3030577,
            5.3568848
          ],
          [
            100.3030677,
            5.3568755
          ],
          [
            100.3030711,
            5.3568825
          ],
          [
            100.3030676,
            5.3568786
          ],
          [
            100.3030631,
            5.3568743
          ],
          [
            100.3030603,
            5.3568718
          ],
          [
            100.3030718,
            5.3568731
          ],
          [
            100.3030524,
            5.3568852
          ],
          [
            100.3030627,
            5.3568806
          ],
          [
            100.3030624,
            5.356887
          ],
          [
            100.3030556,
            5.3568872
          ],
          [
            100.3030676,
            5.3568862
          ],
          [
            100.3030619,
            5.3568885
          ],
          [
            100.3030687,
            5.3568871
          ],
          [
            100.303065,
            5.3568869
          ],
          [
            100.3030577,
            5.3568849
          ],
          [
            100.3030722,
            5.3568931
          ],
          [
            100.3030695,
            5.3568979
          ],
          [
            100.3030657,
            5.3569039
          ],
          [
            100.3030674,
            5.3569092
          ],
          [
            100.3030744,
            5.3569029
          ],
          [
            100.3030559,
            5.3569091
          ],
          [
            100.3029972,
            5.356926
          ],
          [
            100.3030301,
            5.3568977
          ],
          [
            100.3030444,
            5.3569011
          ],
          [
            100.3030443,
            5.3568849
          ],
          [
            100.3030481,
            5.3568825
          ],
          [
            100.3030593,
            5.3568729
          ],
          [
            100.3030524,
            5.3568651
          ],
          [
            100.3030595,
            5.3568548
          ],
          [
            100.3030568,
            5.3568658
          ],
          [
            100.3030649,
            5.3568635
          ],
          [
            100.3030587,
            5.3568667
          ],
          [
            100.3030542,
            5.3568661
          ],
          [
            100.3030637,
            5.3568596
          ],
          [
            100.3030485,
            5.3568674
          ],
          [
            100.3030455,
            5.3568678
          ],
          [
            100.3030587,
            5.3568626
          ],
          [
            100.3030382,
            5.3568714
          ],
          [
            100.303046,
            5.3568787
          ],
          [
            100.3030527,
            5.3568655
          ],
          [
            100.303066,
            5.3568727
          ],
          [
            100.303061,
            5.3568697
          ],
          [
            100.3030609,
            5.3568724
          ],
          [
            100.3030565,
            5.3568723
          ],
          [
            100.3030662,
            5.3568786
          ],
          [
            100.3030689,
            5.3568857
          ],
          [
            100.3030669,
            5.3568814
          ],
          [
            100.3030898,
            5.3568907
          ],
          [
            100.3030783,
            5.3568962
          ],
          [
            100.3030793,
            5.3568983
          ],
          [
            100.3030911,
            5.3568914
          ],
          [
            100.3030871,
            5.3568904
          ],
          [
            100.3030837,
            5.3568879
          ],
          [
            100.3030935,
            5.3568868
          ],
          [
            100.3030842,
            5.3568854
          ],
          [
            100.3030777,
            5.3568878
          ],
          [
            100.303061,
            5.3568879
          ],
          [
            100.3030594,
            5.3568841
          ],
          [
            100.3030743,
            5.3568832
          ],
          [
            100.3030725,
            5.356875
          ],
          [
            100.3030793,
            5.3568697
          ],
          [
            100.3030785,
            5.356866
          ],
          [
            100.3030905,
            5.3568761
          ],
          [
            100.3030843,
            5.3568861
          ],
          [
            100.3030919,
            5.3568947
          ],
          [
            100.3030812,
            5.3569039
          ],
          [
            100.3030849,
            5.3569032
          ],
          [
            100.3030845,
            5.3568943
          ],
          [
            100.3030967,
            5.356894
          ],
          [
            100.303096,
            5.3568976
          ],
          [
            100.3031022,
            5.3568925
          ],
          [
            100.3031004,
            5.3568874
          ],
          [
            100.3030958,
            5.356883
          ],
          [
            100.3031042,
            5.3568842
          ],
          [
            100.3031013,
            5.3568776
          ],
          [
            100.303101,
            5.3568802
          ],
          [
            100.3030941,
            5.3568717
          ],
          [
            100.3030905,
            5.3568624
          ],
          [
            100.3030783,
            5.3568699
          ],
          [
            100.3030984,
            5.3568741
          ],
          [
            100.3030926,
            5.3568669
          ],
          [
            100.3030899,
            5.3568619
          ],
          [
            100.3030905,
            5.3568498
          ],
          [
            100.3030904,
            5.3568551
          ],
          [
            100.3030888,
            5.3568576
          ],
          [
            100.3030926,
            5.3568575
          ],
          [
            100.3030891,
            5.3568591
          ],
          [
            100.3030853,
            5.3568616
          ],
          [
            100.3030906,
            5.3568688
          ],
          [
            100.3030871,
            5.3568665
          ],
          [
            100.3030939,
            5.3568765
          ],
          [
            100.303098,
            5.3568703
          ],
          [
            100.3030886,
            5.3568764
          ],
          [
            100.3030913,
            5.3568629
          ],
          [
            100.3030939,
            5.3568638
          ],
          [
            100.3031027,
            5.3568584
          ],
          [
            100.3031054,
            5.3568636
          ],
          [
            100.3031019,
            5.356864
          ],
          [
            100.3031067,
            5.3568603
          ],
          [
            100.3031054,
            5.3568641
          ],
          [
            100.303107,
            5.356877
          ],
          [
            100.3031035,
            5.3568614
          ],
          [
            100.3030959,
            5.3568602
          ],
          [
            100.3030905,
            5.356856
          ],
          [
            100.3030839,
            5.3568577
          ],
          [
            100.3030728,
            5.3568658
          ],
          [
            100.3030853,
            5.3568627
          ],
          [
            100.3030893,
            5.3568733
          ],
          [
            100.3030894,
            5.3568767
          ],
          [
            100.3030907,
            5.3568634
          ],
          [
            100.3030953,
            5.3568761
          ],
          [
            100.3030918,
            5.3568773
          ],
          [
            100.303097,
            5.3568622
          ],
          [
            100.303132,
            5.3568899
          ],
          [
            100.3031058,
            5.3569098
          ],
          [
            100.3031075,
            5.3568916
          ],
          [
            100.3031077,
            5.3568706
          ],
          [
            100.3031057,
            5.3568669
          ],
          [
            100.3031031,
            5.3568723
          ],
          [
            100.3030972,
            5.3568786
          ],
          [
            100.3030758,
            5.3569111
          ],
          [
            100.3030956,
            5.3569141
          ],
          [
            100.303091,
            5.35693
          ],
          [
            100.3030937,
            5.3569268
          ],
          [
            100.3031096,
            5.3569202
          ],
          [
            100.3031086,
            5.3569232
          ],
          [
            100.3031105,
            5.3569076
          ],
          [
            100.30311,
            5.3569094
          ],
          [
            100.3031128,
            5.3569063
          ],
          [
            100.3031097,
            5.3569037
          ],
          [
            100.3030981,
            5.3569114
          ],
          [
            100.3030989,
            5.3569116
          ],
          [
            100.3031038,
            5.3569111
          ],
          [
            100.3031139,
            5.3569048
          ],
          [
            100.3031253,
            5.3568996
          ],
          [
            100.3031244,
            5.3568975
          ],
          [
            100.3031277,
            5.356886
          ],
          [
            100.303127,
            5.3568727
          ],
          [
            100.3031286,
            5.356867
          ],
          [
            100.3031259,
            5.3568614
          ],
          [
            100.3031212,
            5.3568529
          ],
          [
            100.3031231,
            5.3568471
          ],
          [
            100.3031224,
            5.3568527
          ],
          [
            100.3031312,
            5.3568647
          ],
          [
            100.3031266,
            5.3568652
          ],
          [
            100.3031178,
            5.3568729
          ],
          [
            100.3031101,
            5.3568676
          ],
          [
            100.3031152,
            5.3568796
          ],
          [
            100.3031099,
            5.3568742
          ],
          [
            100.303116,
            5.3568786
          ],
          [
            100.3031087,
            5.3568853
          ],
          [
            100.3031083,
            5.3568732
          ],
          [
            100.3031036,
            5.3568794
          ],
          [
            100.3030957,
            5.3568862
          ],
          [
            100.3030919,
            5.3568787
          ],
          [
            100.3030981,
            5.356869
          ],
          [
            100.3030951,
            5.3568692
          ],
          [
            100.303097,
            5.3568768
          ],
          [
            100.3030988,
            5.3568671
          ],
          [
            100.3031001,
            5.3568722
          ],
          [
            100.3030982,
            5.3568736
          ],
          [
            100.3031103,
            5.3568736
          ],
          [
            100.3031108,
            5.3568672
          ],
          [
            100.3031184,
            5.3568834
          ],
          [
            100.3031087,
            5.3568715
          ],
          [
            100.3031055,
            5.3568734
          ],
          [
            100.303111,
            5.3568744
          ],
          [
            100.3031132,
            5.3568774
          ],
          [
            100.3031101,
            5.3568729
          ],
          [
            100.30311,
            5.3568749
          ],
          [
            100.3031026,
            5.3568804
          ],
          [
            100.3031007,
            5.356884
          ],
          [
            100.3031037,
            5.3568762
          ],
          [
            100.3031029,
            5.3568831
          ],
          [
            100.3031021,
            5.3568872
          ],
          [
            100.3030913,
            5.3568962
          ],
          [
            100.303092,
            5.3568978
          ],
          [
            100.3030832,
            5.3569054
          ],
          [
            100.3030905,
            5.3568814
          ],
          [
            100.303095,
            5.3568789
          ],
          [
            100.3030909,
            5.3568758
          ],
          [
            100.303093,
            5.3568767
          ],
          [
            100.3030897,
            5.3568663
          ],
          [
            100.3030856,
            5.3568633
          ],
          [
            100.3030807,
            5.3568642
          ],
          [
            100.3030819,
            5.3568589
          ],
          [
            100.3030821,
            5.3568544
          ],
          [
            100.3030882,
            5.3568492
          ],
          [
            100.3030876,
            5.3568596
          ],
          [
            100.3030933,
            5.35686
          ],
          [
            100.3030922,
            5.3568573
          ],
          [
            100.3030959,
            5.3568534
          ],
          [
            100.3030805,
            5.3568628
          ],
          [
            100.3030786,
            5.3568702
          ],
          [
            100.3030895,
            5.3568701
          ],
          [
            100.303098,
            5.3568612
          ],
          [
            100.303135,
            5.3568604
          ],
          [
            100.3031447,
            5.3568571
          ],
          [
            100.3031455,
            5.3568506
          ],
          [
            100.3031452,
            5.3568452
          ],
          [
            100.3031447,
            5.3568534
          ],
          [
            100.3031598,
            5.356851
          ],
          [
            100.3030982,
            5.3568986
          ],
          [
            100.3031048,
            5.3568867
          ],
          [
            100.3030822,
            5.3569082
          ],
          [
            100.3030757,
            5.3568916
          ],
          [
            100.3030984,
            5.3568709
          ],
          [
            100.3030892,
            5.3568642
          ],
          [
            100.3030754,
            5.3568704
          ],
          [
            100.3030894,
            5.3568765
          ],
          [
            100.303103,
            5.3568815
          ],
          [
            100.3030994,
            5.3568795
          ],
          [
            100.3030977,
            5.356886
          ],
          [
            100.3031075,
            5.3568821
          ],
          [
            100.303118,
            5.3569107
          ],
          [
            100.3031105,
            5.3568927
          ],
          [
            100.3031157,
            5.3569097
          ],
          [
            100.3031035,
            5.3569041
          ],
          [
            100.3030977,
            5.356898
          ],
          [
            100.3030906,
            5.3568965
          ],
          [
            100.3030969,
            5.3568944
          ],
          [
            100.3030948,
            5.356896
          ],
          [
            100.3030919,
            5.3568923
          ],
          [
            100.3030998,
            5.3568883
          ],
          [
            100.3030966,
            5.3568864
          ],
          [
            100.3030989,
            5.3568851
          ],
          [
            100.3030951,
            5.356884
          ],
          [
            100.3031023,
            5.3568855
          ],
          [
            100.3031065,
            5.3568869
          ],
          [
            100.3031022,
            5.3568849
          ],
          [
            100.3030714,
            5.356867
          ],
          [
            100.3030921,
            5.3568571
          ],
          [
            100.3030836,
            5.3568572
          ],
          [
            100.303074,
            5.3568621
          ],
          [
            100.3030676,
            5.3568615
          ],
          [
            100.3030685,
            5.3568572
          ],
          [
            100.3030738,
            5.3568621
          ],
          [
            100.3030845,
            5.3568584
          ],
          [
            100.3030802,
            5.3568681
          ],
          [
            100.3030771,
            5.3568782
          ],
          [
            100.3030818,
            5.3568709
          ],
          [
            100.3030757,
            5.3568734
          ],
          [
            100.3030804,
            5.3568701
          ],
          [
            100.3030816,
            5.3568779
          ],
          [
            100.3030702,
            5.3568849
          ],
          [
            100.3030842,
            5.3568748
          ],
          [
            100.3030798,
            5.3568792
          ],
          [
            100.3030903,
            5.3568699
          ],
          [
            100.3030781,
            5.3568833
          ],
          [
            100.3030657,
            5.3569017
          ],
          [
            100.3030819,
            5.3569058
          ],
          [
            100.303082,
            5.3569039
          ],
          [
            100.3030882,
            5.3568965
          ],
          [
            100.3030955,
            5.3569023
          ],
          [
            100.3030981,
            5.3569094
          ],
          [
            100.3031009,
            5.3568984
          ],
          [
            100.3031025,
            5.3568926
          ],
          [
            100.3030641,
            5.3569105
          ],
          [
            100.303093,
            5.3568893
          ],
          [
            100.3030986,
            5.3568858
          ],
          [
            100.3030872,
            5.356886
          ]
        ]
      }
    },
    {
      "type": "Feature",
      "properties": {
        "name": "Desasiswa Restu (Start)",
        "time": "06:47:12",
        "description": "Departure point from hostel",
        "speed_kmh": 1.4
      },
      "geometry": {
        "type": "Point",
        "coordinates": [
          100.2898076,
          5.3572768
        ]
      }
    },
    {
      "type": "Feature",
      "properties": {
        "name": "Restu Bus Stop / Boarding Queue",
        "time": "07:34:23",
        "description": "Hostel road shoulder queue for shuttle bus",
        "speed_kmh": 4.1
      },
      "geometry": {
        "type": "Point",
        "coordinates": [
          100.2905445,
          5.3572357
        ]
      }
    },
    {
      "type": "Feature",
      "properties": {
        "name": "Bus Shuttle Alight Point",
        "time": "07:42:17",
        "description": "Transit bus drop-off near DTSP perimeter",
        "speed_kmh": 0.3
      },
      "geometry": {
        "type": "Point",
        "coordinates": [
          100.2917192,
          5.3564735
        ]
      }
    },
    {
      "type": "Feature",
      "properties": {
        "name": "DTSP Roadway Bottleneck (Video fedd)",
        "time": "07:47:03",
        "description": "Massive holding queue under open sun",
        "speed_kmh": 1.3
      },
      "geometry": {
        "type": "Point",
        "coordinates": [
          100.2931623,
          5.3564324
        ]
      }
    },
    {
      "type": "Feature",
      "properties": {
        "name": "Dewan Tuanku Syed Putra (Arrival)",
        "time": "09:18:57",
        "description": "Final seated venue inside DTSP hall",
        "speed_kmh": 1.4
      },
      "geometry": {
        "type": "Point",
        "coordinates": [
          100.3030831,
          5.3568866
        ]
      }
    }
  ]
}