{
  "type": "FeatureCollection",
  "features": [
    {
      "type": "Feature",
      "geometry": {
        "type": "LineString",
        "coordinates": [
          [
            100.3015369,
            5.3571591
          ],
          [
            100.3016574,
            5.3571323
          ],
          [
            100.3017029,
            5.3571371
          ],
          [
            100.3017274,
            5.3571724
          ],
          [
            100.3017671,
            5.3571773
          ],
          [
            100.3017797,
            5.3571739
          ],
          [
            100.3017829,
            5.3571696
          ],
          [
            100.3017826,
            5.3571661
          ],
          [
            100.3017817,
            5.357163
          ],
          [
            100.3017806,
            5.3571604
          ],
          [
            100.3017796,
            5.3571584
          ],
          [
            100.3017783,
            5.3571555
          ],
          [
            100.3017769,
            5.3571525
          ],
          [
            100.3017757,
            5.3571503
          ],
          [
            100.3017748,
            5.3571486
          ],
          [
            100.3017735,
            5.3571473
          ],
          [
            100.3017724,
            5.3571464
          ],
          [
            100.3017709,
            5.3571456
          ],
          [
            100.3017692,
            5.3571449
          ],
          [
            100.3017675,
            5.3571442
          ],
          [
            100.301765,
            5.3571436
          ],
          [
            100.3017628,
            5.357143
          ],
          [
            100.3017596,
            5.3571423
          ],
          [
            100.301756,
            5.3571415
          ],
          [
            100.3017524,
            5.3571405
          ],
          [
            100.3017484,
            5.3571395
          ],
          [
            100.3017449,
            5.3571386
          ],
          [
            100.3017421,
            5.3571379
          ],
          [
            100.3017386,
            5.3571358
          ],
          [
            100.3017352,
            5.3571335
          ],
          [
            100.301732,
            5.3571317
          ],
          [
            100.301729,
            5.3571301
          ],
          [
            100.3017248,
            5.3571288
          ],
          [
            100.3017215,
            5.3571278
          ],
          [
            100.3017174,
            5.3571271
          ],
          [
            100.3017137,
            5.3571265
          ],
          [
            100.3017086,
            5.3571261
          ],
          [
            100.3017016,
            5.3571276
          ],
          [
            100.3016954,
            5.3571293
          ],
          [
            100.3016899,
            5.3571314
          ],
          [
            100.3016857,
            5.3571333
          ],
          [
            100.301682,
            5.357135
          ],
          [
            100.3016783,
            5.3571361
          ],
          [
            100.3016755,
            5.3571371
          ],
          [
            100.3016725,
            5.3571384
          ],
          [
            100.3016697,
            5.3571401
          ],
          [
            100.3016675,
            5.3571414
          ],
          [
            100.3016646,
            5.3571436
          ],
          [
            100.3016624,
            5.3571455
          ],
          [
            100.3016595,
            5.357148
          ],
          [
            100.3016573,
            5.35715
          ],
          [
            100.3016551,
            5.3571519
          ],
          [
            100.3016529,
            5.3571537
          ],
          [
            100.3016508,
            5.3571553
          ],
          [
            100.3016483,
            5.3571567
          ],
          [
            100.3016459,
            5.3571579
          ],
          [
            100.3016432,
            5.3571587
          ],
          [
            100.301641,
            5.3571594
          ],
          [
            100.301639,
            5.3571589
          ],
          [
            100.3016367,
            5.3571583
          ],
          [
            100.3016349,
            5.3571579
          ],
          [
            100.3016328,
            5.357158
          ],
          [
            100.301631,
            5.3571581
          ],
          [
            100.3016291,
            5.3571586
          ],
          [
            100.3016272,
            5.3571594
          ],
          [
            100.3016255,
            5.3571603
          ],
          [
            100.3016235,
            5.3571616
          ],
          [
            100.3016219,
            5.3571626
          ],
          [
            100.3016195,
            5.3571644
          ],
          [
            100.3016176,
            5.3571659
          ],
          [
            100.3016154,
            5.3571675
          ],
          [
            100.3016133,
            5.357169
          ],
          [
            100.3016111,
            5.3571702
          ],
          [
            100.3016091,
            5.3571712
          ],
          [
            100.3016068,
            5.3571726
          ],
          [
            100.3015974,
            5.3571771
          ],
          [
            100.3015946,
            5.3571777
          ],
          [
            100.3015929,
            5.3571652
          ]
        ]
      },
      "properties": {
        "session": "session_2_2026-09-17_evening_Persiaran_Sains_from_DTSP",
        "date": "2026-09-17",
        "condition": "Evening post-induction dispersal walk",
        "direction": "FROM_DTSP",
        "raw_distance_m": 110.9,
        "filtered_distance_m": 56.0,
        "jitter_reduction_pct": 49.5
      }
    },
    {
      "type": "Feature",
      "geometry": {
        "type": "Point",
        "coordinates": [
          100.3015369,
          5.3571591
        ]
      },
      "properties": {
        "name": "Origin",
        "time": "17:36:21",
        "location": "Dewan Tuanku Syed Putra / Dataran Merah"
      }
    },
    {
      "type": "Feature",
      "geometry": {
        "type": "Point",
        "coordinates": [
          100.3015929,
          5.3571652
        ]
      },
      "properties": {
        "name": "Destination",
        "time": "17:37:44",
        "location": "Persiaran Sains (Westbound)"
      }
    }
  ]
}